{"type":"FeatureCollection","name":"centro_treinamento","features":[{"type":"Feature","properties":{"ID":0,"AREA":0.103,"PERIMETER":2.727,"ACRES":0.0,"NOME":"Cenºtro de Treinºamenºto Agroflorestal - IDEFLOR-Bio"},"geometry":{"type":"Polygon","coordinates":[[[-56.62126602986099,-3.214249820373635],[-56.578821558505346,-3.270571259781721],[-56.57472155056899,-3.275971300899986],[-56.56692160293465,-3.286471227183941],[-56.54872155748313,-3.314371230080727],[-56.549921594560196,-3.408671244978908],[-56.53562156483536,-3.483171276748183],[-56.502821585163524,-3.454471305012706],[-56.50622162036603,-3.584071286022666],[-56.49429006502037,-3.584179077297452],[-56.494239438325216,-3.584167091175917],[-56.478521609678914,-3.584071286022666],[-56.40582159161573,-3.582271272316578],[-56.3513851538301,-3.550302274525169],[-56.35136218741541,-3.550296826288107],[-56.31542159244423,-3.529071249067786],[-56.31341379135852,-3.528772266581658],[-56.31214393302803,-3.528583087027076],[-56.31126953288918,-3.529749009758237],[-56.31139123812323,-3.530455101281408],[-56.31119887344544,-3.531417008489373],[-56.31122326478367,-3.53153410367668],[-56.31122846156364,-3.531532008200887],[-56.311356872320225,-3.531479453668001],[-56.31171075627213,-3.530653752386573],[-56.311789378523876,-3.530299868434671],[-56.311794659122874,-3.530301628634337],[-56.3119073119015,-3.530339179560545],[-56.311946623027374,-3.530889702960852],[-56.31211945787077,-3.531031608581546],[-56.31208383478229,-3.531493954360488],[-56.313122771680405,-3.532609837129715],[-56.313738422468354,-3.533110069110993],[-56.314152823761155,-3.53345540352166],[-56.314661940559795,-3.533879695460203],[-56.31471600383525,-3.533982876688245],[-56.31508522666996,-3.53468771092594],[-56.31527247838681,-3.535380642861131],[-56.315704649314334,-3.535985648632053],[-56.315799951553394,-3.536119088530544],[-56.31548537872737,-3.536590989679101],[-56.315366523340394,-3.536641029641035],[-56.3153160642833,-3.536977227777246],[-56.31458499468868,-3.537285011261705],[-56.31385384127503,-3.537400430068377],[-56.31304582580929,-3.537592878565195],[-56.312237810343554,-3.537977607920769],[-56.31112192757433,-3.538208529353145],[-56.310275355354,-3.538939598947767],[-56.309775123372724,-3.539593722671273],[-56.309775123372724,-3.540017008781436],[-56.308697713539054,-3.540517240762714],[-56.30854440853005,-3.540580188855532],[-56.30865094251936,-3.540867855772379],[-56.30846687592571,-3.541017472743991],[-56.307934960350444,-3.542233183979991],[-56.307928171008875,-3.54224877431989],[-56.30765877664094,-3.542633587494496],[-56.30765877664094,-3.543133819475773],[-56.308235954493334,-3.543595578521493],[-56.30827442742889,-3.544172756373885],[-56.30754335783427,-3.545057717710737],[-56.306696869432976,-3.545134663581851],[-56.30708159878855,-3.545634895563129],[-56.3076972495765,-3.545981235802177],[-56.30769976414745,-3.545979475602511],[-56.30801768973475,-3.545755008235577],[-56.30835145711904,-3.545519476756457],[-56.30892863497143,-3.544903825968507],[-56.30907464772468,-3.54445883072913],[-56.30914664827292,-3.544369563460353],[-56.30937471985822,-3.544141575694087],[-56.30937471985822,-3.54391350410879],[-56.309280758723666,-3.54379280470312],[-56.309093004092624,-3.543685516342524],[-56.3089991267771,-3.54352458380163],[-56.30896953865891,-3.543278072029355],[-56.309105325490286,-3.543169442564252],[-56.30919794552033,-3.543095346540216],[-56.30959021858876,-3.542859982699159],[-56.309775123372724,-3.542749006301168],[-56.30977696739142,-3.542751353234056],[-56.31004678085451,-3.543102135881785],[-56.31015993654733,-3.543249238282445],[-56.31039077416067,-3.544057253748182],[-56.31043519824748,-3.544215839356187],[-56.31066016852861,-3.545019244775179],[-56.311275819316556,-3.546173600479964],[-56.31166063249116,-3.547251010313633],[-56.31148335523908,-3.548265974968675],[-56.311237346381,-3.549675140529874],[-56.311160400509884,-3.551021944731477],[-56.311197029426744,-3.551129149273041],[-56.31166063249116,-3.55248408392072],[-56.31166063249116,-3.553022788837555],[-56.311237346381,-3.55356149375439],[-56.311221504584005,-3.553584124892953],[-56.310967952013065,-3.553946306928995],[-56.31049965508287,-3.554095337167385],[-56.3104981463403,-3.554095756262544],[-56.30994007922714,-3.554035993292931],[-56.30962894298141,-3.553724857047203],[-56.30919794552033,-3.553676996380094],[-56.30846687592571,-3.552984315901998],[-56.30795985460286,-3.552260035648945],[-56.307928171008875,-3.552214773371819],[-56.30766598507767,-3.55203992687166],[-56.30735099315648,-3.551829960197213],[-56.3066160678864,-3.551829960197213],[-56.30654951557522,-3.551829960197213],[-56.306435856968214,-3.551829960197213],[-56.3061966374517,-3.551829960197213],[-56.30508075468247,-3.552060881629589],[-56.303657004609754,-3.552676532417539],[-56.30346463993197,-3.553292183205488],[-56.30381089635198,-3.553907833993438],[-56.30473441444342,-3.554254174232486],[-56.30554251372819,-3.554523484781388],[-56.3059582561255,-3.554719202220443],[-56.3061966374517,-3.554831352084878],[-56.30620225332682,-3.554831352084878],[-56.30692770704632,-3.554831352084878],[-56.30758183076983,-3.555139135569337],[-56.30754335783427,-3.555908761918548],[-56.306927455589225,-3.556871674954894],[-56.30692636594181,-3.556873351335529],[-56.30650442093616,-3.557717241346839],[-56.3061966374517,-3.558640675619248],[-56.30618297494953,-3.558651823550466],[-56.30588877014821,-3.558890791609886],[-56.30590679124003,-3.559233359992507],[-56.30590712651615,-3.559238808229569],[-56.30609890446072,-3.559414660558108],[-56.306318594142844,-3.559463443234566],[-56.30632136017089,-3.559462772682312],[-56.30663584917789,-3.559390185400847],[-56.306715393438985,-3.559361770749095],[-56.30673970095818,-3.559353137388829],[-56.3067439757288,-3.559353640303019],[-56.30704312585299,-3.559391023591164],[-56.30757520906632,-3.559497473761442],[-56.307620303705384,-3.559506442397836],[-56.307620303705384,-3.559968201443556],[-56.30673534236853,-3.560699354857209],[-56.30640819668775,-3.560924911871556],[-56.305619459599306,-3.561468897387388],[-56.3053607102484,-3.562284708023074],[-56.30531997419899,-3.562413454055789],[-56.30511922761803,-3.563046539202336],[-56.30508075468247,-3.563700662925843],[-56.30511922761803,-3.564104670658711],[-56.30520438775425,-3.564135096967223],[-56.305657932534864,-3.564297119155529],[-56.30569640547042,-3.564951242879036],[-56.30488830618565,-3.565874677151445],[-56.304435934871485,-3.56618422083557],[-56.30415723659103,-3.566374909132722],[-56.30296440795069,-3.567029032856229],[-56.302271811291625,-3.567875605076555],[-56.302271811291625,-3.567931009456518],[-56.302271811291625,-3.569915005937222],[-56.30216200836008,-3.571141026914123],[-56.30204088985925,-3.572493027895692],[-56.301994789391806,-3.573981821537021],[-56.301963943988135,-3.574974909424785],[-56.30223333835607,-3.576283156871799],[-56.30292593501513,-3.577014310285452],[-56.3029311317951,-3.577013807371262],[-56.303772423416426,-3.576937364414337],[-56.30394525825982,-3.576741144061092],[-56.30435161292558,-3.576279887929562],[-56.304614804685166,-3.576192129403356],[-56.30475235171621,-3.576069334521893],[-56.305372864008,-3.575515374541286],[-56.30570319481199,-3.575220415368679],[-56.30580713041132,-3.575116479769352],[-56.305811489000966,-3.575117737054828],[-56.306119691580584,-3.575205830857161],[-56.305965799838354,-3.575840340927246],[-56.30581182427709,-3.576475605368617],[-56.30581182427709,-3.577783852815631],[-56.305555840954234,-3.578687505796555],[-56.305157700553586,-3.5800925642252],[-56.304842540994336,-3.581773219630125],[-56.30481136031454,-3.58193960040808],[-56.305818697437694,-3.582254340872172],[-56.30578424781566,-3.582375040277842],[-56.30593093112116,-3.582731271162632],[-56.30616151727741,-3.583150450140241],[-56.30620342679327,-3.583653448149565],[-56.30593093112116,-3.584051588550213],[-56.30576329305773,-3.584554586559537],[-56.30590997636323,-3.584847953170541],[-56.30630820058291,-3.584952810779217],[-56.30631390027707,-3.584952810779217],[-56.30649679340427,-3.584952810779217],[-56.306811198592236,-3.584428858011964],[-56.30682737566536,-3.584417207166556],[-56.30715829320257,-3.584178155288103],[-56.307188384234955,-3.584156362339857],[-56.306930389255335,-3.583799125626686],[-56.30691597238188,-3.583779176697138],[-56.30691597238188,-3.583632493391636],[-56.30697883665567,-3.583129495382312],[-56.30691597238188,-3.582877954468134],[-56.30676928907638,-3.582542678341273],[-56.306839026510765,-3.582437401637438],[-56.30713046528404,-3.582598417997363],[-56.30750488489871,-3.582805367186669],[-56.30812053568666,-3.582959258928898],[-56.30850534886127,-3.583421017974618],[-56.30846687592571,-3.584305979311469],[-56.30816236138349,-3.584732366725806],[-56.30815942771738,-3.584736390039328],[-56.307312520220925,-3.585922094061974],[-56.30661983974283,-3.586653247475627],[-56.30641280673449,-3.586963880807164],[-56.30585029721265,-3.587807603180412],[-56.305647287517836,-3.588269026950005],[-56.3056612014771,-3.588285287842158],[-56.30572280846541,-3.588393079116944],[-56.30542701110249,-3.588769510388377],[-56.30473441444342,-3.589115850627425],[-56.30434960126882,-3.589693028479818],[-56.303618531674196,-3.590077841654423],[-56.30250264890497,-3.590539516881111],[-56.301963943988135,-3.591616926714781],[-56.30146371200686,-3.59227113425732],[-56.301348293200185,-3.593271514400843],[-56.30135399289434,-3.593271095305684],[-56.301889177411844,-3.593229437246922],[-56.30189320072537,-3.593232203274968],[-56.302032843232205,-3.593325242400172],[-56.30203711800282,-3.593324320390824],[-56.30219939164822,-3.593287440016869],[-56.30249393172567,-3.593220468610528],[-56.30268285982316,-3.592854430899027],[-56.302829291671564,-3.592570787295702],[-56.302996929734995,-3.592235511168841],[-56.30320647731428,-3.592277420684698],[-56.30349992774432,-3.59225646592677],[-56.30368852056568,-3.59202587977052],[-56.303672175854494,-3.591903252527121],[-56.30364661104982,-3.591711558401588],[-56.303751384839465,-3.591397153213623],[-56.304149609059145,-3.591166650876406],[-56.30442202091222,-3.590936148539189],[-56.30442604422574,-3.590937489643696],[-56.30452746525412,-3.590973028913143],[-56.30484119988983,-3.591082831844691],[-56.304846815764954,-3.591082831844691],[-56.30517647601669,-3.591082831844691],[-56.30540706217294,-3.590957103297117],[-56.30540706217294,-3.590642698109153],[-56.30540706217294,-3.590337010100487],[-56.305412678048064,-3.590333154425028],[-56.305611580610325,-3.590199630707505],[-56.30576329305773,-3.590097790583971],[-56.30594568327074,-3.590000309050086],[-56.306664515286734,-3.589615831151608],[-56.30685838870709,-3.589503932744268],[-56.306936256587555,-3.589459005743268],[-56.30693759769206,-3.58946152031422],[-56.30708159878855,-3.589731501415375],[-56.30708159878855,-3.590655019506815],[-56.30735099315648,-3.591655399650338],[-56.307466411963155,-3.592501971870664],[-56.30604266189044,-3.59423350542784],[-56.305246129632046,-3.59506465494633],[-56.305243698880126,-3.595067253336313],[-56.30517647601669,-3.59501235187054],[-56.30496927537029,-3.594846557825807],[-56.3049669284374,-3.594844713807109],[-56.30463156849151,-3.595033306628469],[-56.30442579276865,-3.595335222780708],[-56.304425625130584,-3.595335390418771],[-56.30439863540237,-3.595334552228454],[-56.30362406373029,-3.595311082899574],[-56.303618531674196,-3.59531091526151],[-56.30307982675736,-3.596118930727247],[-56.30299190059309,-3.596316827461127],[-56.30261806771164,-3.597157867625359],[-56.304118763655474,-3.598273750394586],[-56.304337698966314,-3.598556807264689],[-56.3052346464247,-3.599716695025566],[-56.30596571601932,-3.600601740181449],[-56.306119691580584,-3.602410219609741],[-56.30608716979628,-3.602517005056146],[-56.30608641542499,-3.602519435808066],[-56.3058890216053,-3.602420780807737],[-56.30570042878394,-3.602022640407089],[-56.305409325286796,-3.60177302733064],[-56.30540706217294,-3.601771099492911],[-56.304925018921544,-3.602043595165017],[-56.304738353937914,-3.602333860471848],[-56.304736426100185,-3.602336961776021],[-56.30450357683008,-3.602140909060839],[-56.304085571318915,-3.60210285522044],[-56.30408029071992,-3.602102436125282],[-56.30338526330893,-3.602923778817061],[-56.3023872300983,-3.60410328023136],[-56.30173310637479,-3.605142217129472],[-56.30169463343923,-3.606181154027584],[-56.30261806771164,-3.607104672119025],[-56.302903639152696,-3.607252696529034],[-56.303038503974726,-3.607322601601485],[-56.30304495804017,-3.607325954362753],[-56.303657004609754,-3.607643377035859],[-56.304695941507866,-3.608105052262548],[-56.30481136031454,-3.608393641188744],[-56.30446510389452,-3.608586089685562],[-56.30384945310657,-3.608701508492234],[-56.30415723659103,-3.609932810068134],[-56.3040033448488,-3.610933274030689],[-56.304695941507866,-3.612395497038964],[-56.30456434562807,-3.612600183114413],[-56.304731983691504,-3.612656006589535],[-56.305031552910854,-3.612784417346123],[-56.305117132142236,-3.613083986565474],[-56.30494597367947,-3.613297976553443],[-56.304517993703534,-3.613426387310031],[-56.304090013727595,-3.613554798066619],[-56.30353362299507,-3.613768788054589],[-56.303276885300924,-3.613982778042558],[-56.30340529605751,-3.614325094968084],[-56.303790444508245,-3.614410758018497],[-56.30421842448418,-3.614624664187434],[-56.30404726602142,-3.61488148570061],[-56.30374761298304,-3.614838654175404],[-56.303362464532306,-3.614496337249878],[-56.30302006378775,-3.614239515736702],[-56.30290028639143,-3.614239515736702],[-56.30259208381181,-3.614239515736702],[-56.302035776898315,-3.614239515736702],[-56.301865288987806,-3.614225350320342],[-56.301522217690994,-3.614196768030527],[-56.30138081498449,-3.614229373633865],[-56.30096582695847,-3.614325094968084],[-56.30067857913678,-3.614554926753047],[-56.30065569654112,-3.61464645713568],[-56.301865288987806,-3.616515873000029],[-56.30192547105258,-3.616608912125233],[-56.30222512409096,-3.617916489019993],[-56.30222696810966,-3.617924451828006],[-56.30234875716274,-3.618455864489082],[-56.302425703033855,-3.619687166064981],[-56.301865288987806,-3.620652342215184],[-56.30173310637479,-3.620879994705323],[-56.30015546455984,-3.622650001198056],[-56.29927041940396,-3.623862108215693],[-56.29842393100267,-3.625054936856035],[-56.29842393100267,-3.625786090269688],[-56.29915500059729,-3.626170819625262],[-56.29915994592016,-3.626170400530103],[-56.299924962222626,-3.626107955351475],[-56.299926890060355,-3.626108290627602],[-56.30029343068605,-3.626165539026263],[-56.300854263827254,-3.626198563724759],[-56.30171852186327,-3.626249358057979],[-56.3017188571394,-3.626249022781852],[-56.30184693261986,-3.626120947301391],[-56.301850117743065,-3.626123461872342],[-56.30210526287561,-3.626324879005554],[-56.30234875716274,-3.62651715986431],[-56.302695013582756,-3.627440594136718],[-56.302575236186435,-3.627603286877278],[-56.30215639248495,-3.628171747550371],[-56.301810052245905,-3.629710916429761],[-56.30138676613574,-3.630711296573284],[-56.30127134732907,-3.631230806931856],[-56.30207936279481,-3.631461644545201],[-56.3028843607754,-3.631655937060717],[-56.303195245564034,-3.631731038913134],[-56.30354158580308,-3.631923403590921],[-56.303621381521275,-3.63245548680425],[-56.303772423416426,-3.63346257247031],[-56.30392639897769,-3.635347997769717],[-56.304143238812735,-3.635619152337316],[-56.304695941507866,-3.636309988796714],[-56.30500380881136,-3.637348925694826],[-56.304695941507866,-3.638233887031677],[-56.304143238812735,-3.638633033260706],[-56.3040033448488,-3.638734119012955],[-56.303772423416426,-3.639503745362166],[-56.30423770286148,-3.639736343175176],[-56.30446510389452,-3.639850001782182],[-56.30446904338901,-3.640083353966478],[-56.304484801366975,-3.641002010554078],[-56.30503633059566,-3.642794648185375],[-56.30501654930418,-3.642868241295222],[-56.30512693896895,-3.643006123602393],[-56.30552692338829,-3.643144089728597],[-56.30607853643601,-3.6432268191129],[-56.306271655485084,-3.643392277881506],[-56.30627735517924,-3.643392277881506],[-56.30645094439392,-3.643392277881506],[-56.30658891052013,-3.643392277881506],[-56.30665345117455,-3.643392277881506],[-56.30667507648473,-3.643392277881506],[-56.30675436928873,-3.643392277881506],[-56.307002641260674,-3.643419854342941],[-56.30747160874312,-3.643447514623407],[-56.30754050798719,-3.64353024400771],[-56.307430202141454,-3.643564693629745],[-56.307175224646976,-3.643868705257777],[-56.307071624323775,-3.643992254510525],[-56.30701035261159,-3.644384192302826],[-56.307002641260674,-3.644433645531538],[-56.30722333677118,-3.644750816747549],[-56.30778877995913,-3.644902529194954],[-56.30797536112373,-3.644964722916487],[-56.30832664668565,-3.645081818103793],[-56.30864390172069,-3.645316259935501],[-56.30900247953837,-3.645647345110777],[-56.30912661552434,-3.646378247067335],[-56.30971963517373,-3.647447191178802],[-56.30960932932799,-3.647888498380783],[-56.30925075151031,-3.648260906338695],[-56.308801816776445,-3.648874713107947],[-56.30857491865759,-3.649184927344325],[-56.30867147818213,-3.649612488225106],[-56.30904388614004,-3.649805607274178],[-56.30936105735605,-3.650122778490189],[-56.309209344908645,-3.650509016588333],[-56.30922921001916,-3.650538939982656],[-56.30943004041915,-3.651315858587626],[-56.30973346531396,-3.651577876880768],[-56.30996790714567,-3.651853725314143],[-56.31025758571928,-3.65201918408275],[-56.31026261486118,-3.652018848806623],[-56.31046445108955,-3.652005437761548],[-56.31051960401242,-3.65177099592984],[-56.31064332090323,-3.651628252118829],[-56.31069889292126,-3.651564046740535],[-56.310703586787035,-3.651565220206979],[-56.31072764284914,-3.651570836082104],[-56.31093333475297,-3.651619283482435],[-56.3110298942775,-3.651853725314143],[-56.31099175661807,-3.651940645650032],[-56.310930820182016,-3.652079366147521],[-56.31078162230556,-3.652419168502095],[-56.310919588431766,-3.653646698221567],[-56.31159542128449,-3.654253548011187],[-56.31163364276295,-3.654267545789483],[-56.312009152025034,-3.654405260458592],[-56.3120505586267,-3.655115542933348],[-56.311953999102165,-3.655405137687925],[-56.311939749866774,-3.65543078631163],[-56.31167815066879,-3.655901681631807],[-56.311650574207356,-3.656439548358324],[-56.3120505586267,-3.656577514484528],[-56.31205206736927,-3.656576089560989],[-56.312203695997646,-3.656433848664168],[-56.312244264408996,-3.656395794823769],[-56.312271170318176,-3.656370565295223],[-56.31227318197494,-3.656374001875523],[-56.31246428936725,-3.656701650470498],[-56.31236286833887,-3.656863840296868],[-56.31233051419263,-3.656915640458468],[-56.312326323241045,-3.656922262161973],[-56.31217461079364,-3.657184364274147],[-56.31221601739531,-3.657473959028724],[-56.312533020973255,-3.65768535062671],[-56.31267115473752,-3.657777383923534],[-56.312770480290105,-3.658019537106159],[-56.31289185024803,-3.658315250650051],[-56.31275639869278,-3.658533850684765],[-56.31258842535322,-3.658804921433333],[-56.312078135088136,-3.659204905852679],[-56.312133288011005,-3.660225486382845],[-56.312525225803306,-3.660530336201194],[-56.312753884121825,-3.660708200186494],[-56.31276771426206,-3.661397779360417],[-56.31380212493246,-3.662673588842157],[-56.3141331262887,-3.663059743121269],[-56.31428483873611,-3.663542456924918],[-56.3150158245117,-3.663776898756626],[-56.31560884416108,-3.66421828977764],[-56.315981252118995,-3.664632020518187],[-56.31624327041214,-3.665459565818313],[-56.316408812999775,-3.665845720097426],[-56.316642332822134,-3.666025847196582],[-56.316891526803424,-3.666218128055337],[-56.31685012020176,-3.66691458038986],[-56.31699546240275,-3.667506175115708],[-56.31704323925083,-3.667700719088319],[-56.31734666414564,-3.668142110109332],[-56.31740500219171,-3.668209249153736],[-56.31773633882408,-3.668590709567073],[-56.317925937473824,-3.668804112821821],[-56.31791210733359,-3.669672980904582],[-56.31797254085546,-3.67027094587684],[-56.31798109039669,-3.670355686917904],[-56.31760868243878,-3.67105909623206],[-56.316905273124625,-3.671541810035709],[-56.316836373880555,-3.672300372272733],[-56.31730525754397,-3.672755509614948],[-56.31759644486015,-3.672786690294746],[-56.317691495642116,-3.672796916216615],[-56.317925937473824,-3.672934798523787],[-56.31809139624243,-3.673355486243966],[-56.31869824603205,-3.674224354326728],[-56.31937407888477,-3.675300171598795],[-56.31933049298828,-3.67574701085687],[-56.31931900978093,-3.675864944234494],[-56.3193189259619,-3.675865614786747],[-56.318881306797316,-3.675810964778069],[-56.31887753494089,-3.675810461863878],[-56.318376464769294,-3.67593317292631],[-56.3182017859072,-3.675976004451516],[-56.3181328028441,-3.67661043070257],[-56.31853278726344,-3.677182747051123],[-56.31890410557394,-3.677442669868472],[-56.31894651800399,-3.677472425624731],[-56.3193189259619,-3.677872326225045],[-56.31973265670245,-3.678037868812683],[-56.31983575411146,-3.678326373919848],[-56.31989786401396,-3.678500466048721],[-56.31993952207272,-3.678617142140868],[-56.320311930030634,-3.67936187423766],[-56.319884369149854,-3.679954977706078],[-56.319705080241015,-3.680472141131762],[-56.31956719793384,-3.680996261537078],[-56.319649927318146,-3.68136866949499],[-56.31981387734418,-3.681427845731381],[-56.32014647126203,-3.681547958403829],[-56.32071191444998,-3.681782400235537],[-56.32071191444998,-3.68216855451465],[-56.320560202002575,-3.682334097102288],[-56.32024462334817,-3.682430153712633],[-56.32024294696753,-3.682430656626824],[-56.31989819929009,-3.682389250025156],[-56.31967750377958,-3.682196130976084],[-56.31948438473051,-3.68198926560581],[-56.31936511024838,-3.681980129331353],[-56.31930953823035,-3.681975854560736],[-56.31930509582167,-3.681975519284609],[-56.318725822493484,-3.682127231732014],[-56.31858794018631,-3.682513386011127],[-56.318629682064106,-3.682688567787412],[-56.318725822493484,-3.683092659339312],[-56.31912580691283,-3.68332710117102],[-56.31926377303903,-3.683437407016757],[-56.3191809598357,-3.68363052606583],[-56.31902120076125,-3.68363052606583],[-56.31901550106709,-3.68363052606583],[-56.318725822493484,-3.683589119464162],[-56.3185472041369,-3.683410501107577],[-56.318546533584644,-3.683409830555323],[-56.317959213629415,-3.683483256027106],[-56.31790271960204,-3.683490380644801],[-56.317884530872156,-3.683492643758658],[-56.31749837659304,-3.684333935379985],[-56.31711222231393,-3.685085624456409],[-56.31711758673196,-3.685322245582941],[-56.31712596863513,-3.685692474246028],[-56.31725178100174,-3.685973687097433],[-56.317252619192054,-3.685975447297099],[-56.31736041046684,-3.686216510832313],[-56.3178407773376,-3.686420693993572],[-56.31791210733359,-3.686451036483053],[-56.318137580528905,-3.686459334567192],[-56.31814319640403,-3.686459586024287],[-56.3182845152915,-3.686464782804254],[-56.3182847667486,-3.68646461516619],[-56.31851895712321,-3.686244087293747],[-56.31900167092686,-3.686037221923474],[-56.31900359876459,-3.686038814485076],[-56.319084484130194,-3.686106204986575],[-56.31905690766876,-3.686230340972546],[-56.31864309310918,-3.686878597363833],[-56.318085780367305,-3.687393832951787],[-56.31791210733359,-3.687554346397522],[-56.31766350008552,-3.687926251441243],[-56.31753978319471,-3.688443917781118],[-56.317512122914245,-3.689023191109303],[-56.317512122914245,-3.689933465793732],[-56.31773281842475,-3.690333450213078],[-56.31765008904045,-3.691643709316853],[-56.31767766550188,-3.692464297637347],[-56.31753978319471,-3.693181537091735],[-56.31777422502642,-3.69363667443395],[-56.31777422502642,-3.694119388237599],[-56.317717898637106,-3.694513672962788],[-56.31770524196332,-3.694602102041248],[-56.31727768108254,-3.694850374013189],[-56.31682254374032,-3.695319257676605],[-56.31654443219309,-3.695855196565393],[-56.31625710055237,-3.696408821269873],[-56.31587094627326,-3.696815678849819],[-56.31589852273469,-3.69736737571657],[-56.31618811748927,-3.69767080061138],[-56.31653261370962,-3.697788650169972],[-56.316712237894585,-3.697850089520219],[-56.316717099398424,-3.697849838063124],[-56.31734582595532,-3.697814214974645],[-56.317443223670175,-3.697808766737583],[-56.3174438104034,-3.697809018194679],[-56.31766383536165,-3.697919072583321],[-56.31759493611758,-3.698112191632393],[-56.31749334745114,-3.698174720630053],[-56.31741564720874,-3.698222497478131],[-56.31706176325684,-3.698449982330206],[-56.317029409110596,-3.698470769450072],[-56.31700183264916,-3.698856923729184],[-56.317194951698234,-3.699174178764227],[-56.31725831888621,-3.699202593415979],[-56.31759493611758,-3.699353467673066],[-56.31784320808952,-3.699574079364541],[-56.318063819780996,-3.700070623308423],[-56.31795351393526,-3.700346471741799],[-56.31773281842475,-3.700656769797209],[-56.31752595305448,-3.701084330677989],[-56.31771907210355,-3.701346348971132],[-56.31800866685813,-3.701498061418536],[-56.318118972703864,-3.701925622299317],[-56.318353498354604,-3.702160147950056],[-56.31896034814422,-3.702353183180097],[-56.31904307752853,-3.702822150662544],[-56.31919478997593,-3.70309799909592],[-56.319525791332175,-3.703153152018789],[-56.319456808269074,-3.703497983515266],[-56.31919906474655,-3.703915318474177],[-56.3191672135145,-3.703966867178682],[-56.31905690766876,-3.704401301220063],[-56.31925279274588,-3.704525688663128],[-56.31942738778894,-3.704636581242088],[-56.31942881271248,-3.704637419432405],[-56.31963609717791,-3.704663403332237],[-56.31980163976555,-3.704966828227046],[-56.31971891038125,-3.705187439918521],[-56.31963609717791,-3.705463288351897],[-56.319705080241015,-3.705752966925505],[-56.319836592301776,-3.705898309126499],[-56.31996718235319,-3.706042561680082],[-56.319774985313465,-3.706207266077402],[-56.319774063304116,-3.70620810426772],[-56.31972083821898,-3.706199219450358],[-56.31960852071648,-3.706180527806285],[-56.31958027370279,-3.706139372661713],[-56.319456808269074,-3.705959832295779],[-56.3193326722831,-3.705959832295779],[-56.31919478997593,-3.70597357861698],[-56.31900167092686,-3.70633224025369],[-56.318905195221355,-3.70693909004331],[-56.31897669285541,-3.707058280706409],[-56.319153383374264,-3.707352820783857],[-56.31924415938561,-3.707438651472334],[-56.31953962147241,-3.707718271762136],[-56.32017404772346,-3.708021696656946],[-56.320987762883355,-3.708200985565785],[-56.32096018642192,-3.708463087677959],[-56.32065676152711,-3.708752682432536],[-56.32051879540091,-3.70908368378878],[-56.320270607248,-3.709800923243169],[-56.32011386565869,-3.710279278457168],[-56.320008505135824,-3.710600808262829],[-56.31967750377958,-3.711504209786657],[-56.31941548548644,-3.711904194206003],[-56.319456808269074,-3.712552366778258],[-56.31980163976555,-3.712786892428998],[-56.31980407051747,-3.712784629315141],[-56.31999475881462,-3.712607603520159],[-56.320103388279726,-3.712402246892456],[-56.32011889480059,-3.712373077869419],[-56.32039465941494,-3.712345501407984],[-56.320395078510096,-3.712346088141206],[-56.320560202002575,-3.712566196918491],[-56.320560202002575,-3.712842045351866],[-56.32058777846401,-3.713117893785242],[-56.32083605043595,-3.713214453309778],[-56.32107049226766,-3.71335233561695],[-56.32090503349905,-3.713545454666022],[-56.32069808430975,-3.713876456022266],[-56.32075332105165,-3.714759154245261],[-56.321236034855296,-3.715317724272612],[-56.32118088193243,-3.71555216610432],[-56.32136017084127,-3.715896997600797],[-56.321608358994176,-3.716103862971071],[-56.32193944416945,-3.716186592355374],[-56.32217388600116,-3.716434864327315],[-56.32240832783287,-3.716862425208095],[-56.32268417626624,-3.717331308871511],[-56.322642769664576,-3.717827852815393],[-56.322339344769766,-3.718200260773305],[-56.3223669212312,-3.718510558828715],[-56.32265659980481,-3.718938119709495],[-56.3225466292352,-3.719072481617335],[-56.32240832783287,-3.719241544604305],[-56.32238075137143,-3.719724258407954],[-56.322573870420506,-3.720206972211603],[-56.32284963503485,-3.720524227246646],[-56.32312472909694,-3.720722207799557],[-56.323194466531326,-3.720772415399555],[-56.323180720210125,-3.721117246896032],[-56.32317217066889,-3.721125712618235],[-56.322946194559385,-3.72135168872774],[-56.322717452421834,-3.72135168872774],[-56.32271175272768,-3.72135168872774],[-56.32249105721717,-3.721131077036265],[-56.32238217629497,-3.721103835850958],[-56.32238075137143,-3.721103500574831],[-56.322215208783796,-3.721117246896032],[-56.322022173553755,-3.721324112266306],[-56.32204245775943,-3.721435926854614],[-56.322077326476624,-3.721627537161115],[-56.32235317491,-3.721999945119027],[-56.32286346517508,-3.722572345286611],[-56.322952983900954,-3.722644764930013],[-56.323392782360365,-3.72300082817674],[-56.32344273850327,-3.723041228950027],[-56.324228877201726,-3.723454959690574],[-56.32438058964913,-3.723772214725617],[-56.3245184719563,-3.724185945466164],[-56.32433951832359,-3.724392559379343],[-56.324339183047464,-3.72439289465547],[-56.324104741215756,-3.724379064515237],[-56.32388404570525,-3.724379064515237],[-56.323732333257844,-3.724641082808379],[-56.323732333257844,-3.724985914304856],[-56.32388404570525,-3.725358322262768],[-56.32391765713697,-3.725408697500828],[-56.32427028380339,-3.725937595590953],[-56.323980605229785,-3.726372029632333],[-56.32381749339407,-3.726610494777564],[-56.32362202741211,-3.72689615003765],[-56.32362202741211,-3.727240897715095],[-56.32375990971928,-3.727737441658977],[-56.323909694328954,-3.72799945995212],[-56.323980605229785,-3.72812359593809],[-56.323909694328954,-3.728316212072972],[-56.32388404570525,-3.728385614231232],[-56.3234013319016,-3.728592563420538],[-56.32268417626624,-3.729420024901632],[-56.32265659980481,-3.729971721768383],[-56.32296002469962,-3.730530291795734],[-56.323194466531326,-3.730695834383372],[-56.323199830949356,-3.730695582926277],[-56.32351172156637,-3.730682004243139],[-56.323511973023464,-3.730682255700234],[-56.32381514646118,-3.730902699753646],[-56.32374616339808,-3.731095818802718],[-56.323373755440166,-3.731426820158962],[-56.32327719591563,-3.731688838452104],[-56.32316689006989,-3.732171552255753],[-56.32316689006989,-3.732640519738201],[-56.32344273850327,-3.732916368171576],[-56.323497891426136,-3.733288692310456],[-56.32345648482447,-3.733633523806933],[-56.323056584224155,-3.734302399680022],[-56.322877295315315,-3.734674807637933],[-56.32290487177675,-3.73489550314844],[-56.32308416068559,-3.735102368518714],[-56.323360009118964,-3.735336810350422],[-56.32370475679641,-3.73557125218213],[-56.32387029938405,-3.735805777832869],[-56.323909694328954,-3.736002668738369],[-56.32393928244715,-3.736150525510315],[-56.32404958829289,-3.736412627622489],[-56.32404958829289,-3.736826358363036],[-56.32407716475432,-3.737391801550988],[-56.324587455019405,-3.737709056586031],[-56.32500730454927,-3.737985743209723],[-56.32489808835094,-3.738161344081167],[-56.324922647327234,-3.739142613485459],[-56.32489808835094,-3.739829426631335],[-56.324554681778004,-3.740565357729796],[-56.32416215725248,-3.741129543632272],[-56.32354893721645,-3.741816356778148],[-56.32313193753367,-3.742208881303672],[-56.323107378557374,-3.742944728583101],[-56.32308281958108,-3.743508914485577],[-56.32303378544753,-3.744183490052823],[-56.32315641269093,-3.744943980127577],[-56.32300931029027,-3.745287386700515],[-56.3222979381681,-3.745655352249745],[-56.32180726155644,-3.746096910908822],[-56.32175596430903,-3.746215598657731],[-56.321414820849945,-3.747004503384236],[-56.321414820849945,-3.747470537200574],[-56.321442732587506,-3.7476159632206],[-56.322270361706664,-3.748923121020201],[-56.32255174219613,-3.748230021446947],[-56.32439048029487,-3.748150141909722],[-56.32535934448247,-3.748640064150099],[-56.3254043553025,-3.748700832948092],[-56.325611136853745,-3.748980117961768],[-56.326618222519805,-3.750350056216124],[-56.327880872413566,-3.753639953210953],[-56.328220423311045,-3.755569970235232],[-56.328319581225564,-3.763350052759055],[-56.32810978218918,-3.767240094020966],[-56.328178429976155,-3.769210176542405],[-56.32846836000686,-3.770529991015795],[-56.329780630767395,-3.773159980773929],[-56.33124930784111,-3.775019925087694],[-56.335159381851604,-3.777829958125952],[-56.338218692690184,-3.779570125043396],[-56.341259060427596,-3.780740071088079],[-56.34389114566152,-3.78229005262256],[-56.34582904167478,-3.783970121294264],[-56.347061181441,-3.785320110619072],[-56.34761815890675,-3.786380086094145],[-56.35194020345812,-3.786930106580261],[-56.35358054190879,-3.787519941106442],[-56.35454948991542,-3.788130059838299],[-56.35649115778511,-3.789730081334714],[-56.36112978681927,-3.79453995265067],[-56.36326985433703,-3.796050120145086],[-56.36603169143205,-3.796989982947711],[-56.37004092335706,-3.797650141641501],[-56.37218099087482,-3.798379953950647],[-56.37562947347765,-3.799819964915518],[-56.37792971916502,-3.799979975447062],[-56.379081727936914,-3.799770176410679],[-56.38199997134512,-3.798630069941286],[-56.38431170023983,-3.797410083934668],[-56.38542942702775,-3.797060055658225],[-56.38660054653888,-3.797019990161065],[-56.388900792226245,-3.797600101679567],[-56.39031984843319,-3.798409961164001],[-56.39186102896934,-3.799880063161257],[-56.39538964256649,-3.80272010341287],[-56.3974304683507,-3.805150100961331],[-56.39891054481273,-3.808630015701059],[-56.400180822238376,-3.81028016097844],[-56.40037603676324,-3.810448385775093],[-56.40434009023016,-3.814140027388934],[-56.41069005243485,-3.817850025370721],[-56.41069013625388,-3.817850109189752],[-56.41069030389195,-3.817850444465879],[-56.41069038771098,-3.817850193008784],[-56.413360610604336,-3.817910039797429],[-56.41539003700023,-3.818530132994059],[-56.42047123052185,-3.821930000558499],[-56.42338947393005,-3.824140140786771],[-56.42414099536841,-3.824510117992762],[-56.425159480422785,-3.824470052495602],[-56.42821124754851,-3.82334997877479],[-56.430439073592474,-3.823220059275631],[-56.43215945921843,-3.823430109769109],[-56.433891328051736,-3.822999950498346],[-56.43566133454447,-3.822819991037253],[-56.44028093665843,-3.822999950498346],[-56.44226845353847,-3.822789983823899],[-56.44343186169868,-3.822299977764491],[-56.44525911659007,-3.820660142228011],[-56.4461403060705,-3.818429969251159],[-56.44731905311351,-3.816910078749064],[-56.44934085197752,-3.816159982234243],[-56.45043946802621,-3.815249959006909],[-56.452190447598745,-3.81340007297695],[-56.45365912467246,-3.812439925968651],[-56.454860754311134,-3.812079923227433],[-56.458198595792105,-3.811750011518601],[-56.45890049636369,-3.811330078169707],[-56.46147164516156,-3.808670081198219],[-56.462959349155476,-3.807430062443022],[-56.46662140265112,-3.806350054219369],[-56.467151725664785,-3.806000025942925],[-56.468219831585934,-3.804709967225794],[-56.47055821493273,-3.803900023922328],[-56.47328191436832,-3.802290027961138],[-56.47428900003438,-3.802000097930435],[-56.47534185089176,-3.801889959722761],[-56.478870464488914,-3.802540060132745],[-56.48085027001803,-3.802400166168812],[-56.48228080943232,-3.80182005465031],[-56.48434837348764,-3.800139902159575],[-56.48501976393168,-3.799799932166938],[-56.48707970045512,-3.799170032143596],[-56.48900988511746,-3.798899967223409],[-56.48952109739189,-3.7987001426518],[-56.492160810157706,-3.796700052917007],[-56.49385076947515,-3.794750003144149],[-56.49468996562069,-3.794060004875067],[-56.49504091590648,-3.79453995265067],[-56.49636844173079,-3.795380154624585],[-56.49734878912573,-3.796550100669268],[-56.497459430247595,-3.79715996794403],[-56.497318278998186,-3.798300074413422],[-56.49776084348564,-3.800290105864409],[-56.49850088171666,-3.801470110192898],[-56.499321050941994,-3.801330132409934],[-56.4999199379236,-3.801430044695739],[-56.50104906409984,-3.802690096199516],[-56.50201038457458,-3.80450016818941],[-56.50268940255051,-3.807369964197282],[-56.50278856046503,-3.808490121737126],[-56.50271991267805,-3.811369976028804],[-56.50286106392746,-3.812629943713549],[-56.503349309787204,-3.813580116257075],[-56.50394828058784,-3.814709912985567],[-56.50434114038949,-3.815150046721104],[-56.50529868900781,-3.815690092742447],[-56.50648120790725,-3.815810037776831],[-56.50720984674995,-3.816030062735084],[-56.508228331804325,-3.817130103707317],[-56.50875857099896,-3.818830037489537],[-56.50862127542501,-3.820580011233691],[-56.50868992321198,-3.822310036048297],[-56.50923164561396,-3.823930090293292],[-56.51039128191774,-3.825140018016103],[-56.51247032918041,-3.825190141797069],[-56.51351169683044,-3.82584007456899],[-56.5137711167336,-3.826669966802005],[-56.5137901436538,-3.828320028260354],[-56.51419071480637,-3.829010026529435],[-56.51568990200763,-3.830560008063916],[-56.51589819230144,-3.83159852586687],[-56.51635115034883,-3.832739219069484],[-56.51676186360424,-3.833100143820051],[-56.51726150885229,-3.83327012881637],[-56.51705170981591,-3.834719946607951],[-56.51720811612909,-3.835380105301741],[-56.51779183186596,-3.835840020328764],[-56.51845936663454,-3.8363700080663],[-56.5214195195586,-3.836730010807518],[-56.522300792858054,-3.837420009076599],[-56.52251059189444,-3.837750004604462],[-56.52248008176689,-3.83813004009426],[-56.52172856032853,-3.83959008380771],[-56.52159126475458,-3.840339928865436],[-56.52201086282735,-3.843120122328404],[-56.52093127369886,-3.845560094341639],[-56.52056892402475,-3.847300093621019],[-56.520069194957664,-3.851320054382089],[-56.520221745595386,-3.852770123630766],[-56.52022937312727,-3.852770123630766],[-56.520420145243456,-3.85291010141373],[-56.523281140253,-3.853100119158629],[-56.52471930719917,-3.854199908673767],[-56.5249786432833,-3.854680107906464],[-56.52494813315575,-3.855570098385218],[-56.52445988729601,-3.856839956715707],[-56.524570528417875,-3.857440017163757],[-56.52510076761251,-3.858390105888251],[-56.5248108375818,-3.860440067946914],[-56.5252495463938,-3.861649995669726],[-56.525341076776435,-3.86286000721157],[-56.52497101575141,-3.863850161433223],[-56.5248108375818,-3.86427998542786],[-56.52418906800454,-3.86529000476003],[-56.52408982627099,-3.865829966962341],[-56.52426148764794,-3.867010138928894],[-56.52413181960588,-3.867990067228678],[-56.52310185134416,-3.869489924982194],[-56.52236181311314,-3.870909987017516],[-56.52257161214953,-3.874069964513186],[-56.52243046090012,-3.874769937247041],[-56.52220917865639,-3.875309983268384],[-56.52500160969799,-3.875910043716434],[-56.5273513924331,-3.877049982547764],[-56.529018469154884,-3.878690069541339],[-56.531761195510676,-3.881870079785589],[-56.53311923146253,-3.883120073005561],[-56.534568797797014,-3.884010147303346],[-56.54013832099741,-3.886780031025413],[-56.54154974967246,-3.887739926576618],[-56.5440483950079,-3.889859961345795],[-56.54439163394277,-3.890150142833594],[-56.54544071294372,-3.890780042856935],[-56.54877855442469,-3.89225006103516],[-56.549469055607965,-3.892810139805082],[-56.54985437169676,-3.893124964088205],[-56.55014505609875,-3.804583651944998],[-56.55988340266054,-3.726514354348186],[-56.52786746621137,-3.699796115979555],[-56.52739028446381,-3.695700131356719],[-56.526674050837805,-3.694729926064614],[-56.52577182278042,-3.693946637213233],[-56.52576193213468,-3.693914199247959],[-56.52574441395705,-3.693856280297044],[-56.52569035068159,-3.693829374387863],[-56.525663109496286,-3.69376617483795],[-56.52562681585555,-3.693648828193548],[-56.52558566071098,-3.693607756868008],[-56.525536542758395,-3.693558638915423],[-56.5255362913013,-3.693441376090053],[-56.52553620748227,-3.693441376090053],[-56.52553620748227,-3.693441292271021],[-56.52545507065957,-3.693414470180872],[-56.52545481920247,-3.693317407742146],[-56.52545481920247,-3.693296872079376],[-56.52540888637309,-3.693251190707091],[-56.52539161965256,-3.693233923986557],[-56.52534778229897,-3.693143986165527],[-56.525246780365755,-3.692936198785904],[-56.52501057833438,-3.692141929641369],[-56.52419929392641,-3.69044249877334],[-56.5232446789742,-3.688442660495642],[-56.52318173088138,-3.688188605010513],[-56.523117274045994,-3.687928179278973],[-56.52307813055818,-3.687833044677976],[-56.5230356343091,-3.687729528173807],[-56.5230255760253,-3.687644703313711],[-56.52300805784767,-3.687494667246941],[-56.522947289049675,-3.687268020585182],[-56.522889621555855,-3.687052354216579],[-56.52252500876789,-3.686136882752183],[-56.522282268852045,-3.685527183115485],[-56.521704755723526,-3.685022927820686],[-56.52106429450219,-3.684554882347587],[-56.521010315045764,-3.684564186260107],[-56.52062256820505,-3.684357404708865],[-56.51991932652896,-3.683880642056468],[-56.51985537260776,-3.683844683691862],[-56.51971179060643,-3.683763798326257],[-56.519064204767396,-3.683507563546303],[-56.51900880038743,-3.683485686779025],[-56.500357054173996,-3.631381178274754],[-56.50068956427281,-3.631172385066751],[-56.50111737661069,-3.630900308489803],[-56.501902593299796,-3.630400998517874],[-56.501901084557225,-3.63039202988148],[-56.50189354084437,-3.630346935242418],[-56.50233325548475,-3.629902945831421],[-56.503276051953485,-3.629069197922948],[-56.50357201695447,-3.628652617335323],[-56.503696320578506,-3.628548933193091],[-56.50377854704862,-3.628480453044179],[-56.50380495004361,-3.628448601812127],[-56.50410150177782,-3.628091197460893],[-56.50497104041283,-3.626787643879655],[-56.50496634654706,-3.626760151237252],[-56.504961820319345,-3.626733496785167],[-56.50525736622517,-3.626172496005896],[-56.50531084276741,-3.625991698354486],[-56.50532802566891,-3.625791454687718],[-56.50534579530363,-3.625584924593571],[-56.50519953109329,-3.62475419417024],[-56.50519852526491,-3.624392934143546],[-56.50540480390196,-3.624157402664426],[-56.50545853190129,-3.624075930565599],[-56.506546000018766,-3.623512666672471],[-56.507293079048445,-3.623411161825064],[-56.510947002098014,-3.623283673077825],[-56.512377290055205,-3.62296340055764],[-56.514211082831075,-3.62209117971361],[-56.51538781821733,-3.621202446520332],[-56.51545797474687,-3.621141677722338],[-56.5158277843148,-3.62082174047828],[-56.51862348429864,-3.619512990117076],[-56.51862348429864,-3.619512906298044],[-56.51862356811767,-3.619512906298044],[-56.5189915336669,-3.618928855285052],[-56.51906252838676,-3.618816118687394],[-56.519146179780414,-3.618722911924127],[-56.5192331001163,-3.6186258494854],[-56.519325636327316,-3.618521494790915],[-56.51938556693499,-3.618453936651352],[-56.519385650754025,-3.618453769013289],[-56.51916864328091,-3.618102064356211],[-56.51915414258843,-3.617791850119832],[-56.5191400609911,-3.617487670853737],[-56.51933963410561,-3.616804378107193],[-56.519496627152016,-3.616267098113898],[-56.51961162686353,-3.615535022690895],[-56.51953878812497,-3.615246098488572],[-56.51904157362883,-3.614461468532685],[-56.51897368021314,-3.614288633689287],[-56.518715266138365,-3.613631157204512],[-56.51868676766758,-3.613071162253621],[-56.518735801801135,-3.613021541386846],[-56.51874954812234,-3.613007711246613],[-56.51874954812234,-3.613007627427581],[-56.51874912902718,-3.612875025719407],[-56.51874829083686,-3.612564979121092],[-56.51877553202217,-3.612493313848975],[-56.51883780956273,-3.61232986673713],[-56.51887175627058,-3.611625116318467],[-56.519013829529335,-3.610910894349221],[-56.51901491917675,-3.610907876864079],[-56.51910309679811,-3.610675781965259],[-56.51925547979777,-3.610440501943234],[-56.519343154504945,-3.610335644334558],[-56.51974003762012,-3.609860893338922],[-56.519854785874536,-3.609732147306207],[-56.5199014730752,-3.609679760411385],[-56.51990155689423,-3.609679676592353],[-56.520188050344636,-3.609145916998389],[-56.520168017596056,-3.608423145487908],[-56.52016432955866,-3.608380230143669],[-56.520140105858495,-3.608098095282915],[-56.51989501900976,-3.607624182477597],[-56.51969678699975,-3.607240878045562],[-56.51963358744984,-3.607186898589137],[-56.519633419811775,-3.607116825878623],[-56.51963283307855,-3.606861680746082],[-56.52001873590057,-3.605918465182188],[-56.52021378278737,-3.605441702529791],[-56.52114610187714,-3.604074865579608],[-56.5214057732374,-3.603577231988314],[-56.52158514596527,-3.603332815691832],[-56.52220289222901,-3.6021204572171],[-56.52303974144166,-3.600952439010146],[-56.523422291502406,-3.600418679416183],[-56.523552211001565,-3.60031692311168],[-56.52378153987234,-3.600137550383809],[-56.524410769343426,-3.599846698343757],[-56.52529212646191,-3.599582249298695],[-56.525391452014496,-3.599581914022568],[-56.525535034015824,-3.599581662565473],[-56.52600282803183,-3.599399691447619],[-56.526167364791085,-3.5992780700326],[-56.526236264035155,-3.59922727569938],[-56.52635486796503,-3.599093668162826],[-56.52646953240042,-3.598964670673016],[-56.52647070586686,-3.598913876339796],[-56.526477579027464,-3.598603243008259],[-56.526530887931635,-3.598368130624297],[-56.52652963064616,-3.597898408770564],[-56.526489565149,-3.597746025770906],[-56.52647506445651,-3.597690621390942],[-56.52647431008523,-3.597419634461406],[-56.52641982771461,-3.597248140722516],[-56.526418570429136,-3.596796439960602],[-56.526285046711614,-3.594059413298968],[-56.52638646773999,-3.593374527990821],[-56.526417564600756,-3.593164561316374],[-56.52642762288456,-3.59312281943858],[-56.526533318683555,-3.592685367912057],[-56.526580760255506,-3.592560477554801],[-56.52662158012395,-3.592571290209893],[-56.52682676911359,-3.592037698253992],[-56.52690840885048,-3.591911550611261],[-56.526878066361,-3.591904425993565],[-56.52762162499135,-3.589971223846081],[-56.5283215977252,-3.587271245196465],[-56.52812160551553,-3.584471270442012],[-56.52642158791428,-3.581771291792396],[-56.52672157622879,-3.577271299436692],[-56.52752162888651,-3.575371289625767],[-56.529121566563894,-3.572771307080987],[-56.53052159585064,-3.56947126798332],[-56.53062159195547,-3.565871240571144],[-56.53162155300384,-3.562771277502182],[-56.53472159989183,-3.558471277356151],[-56.53682160191243,-3.556071287021044],[-56.53772156685596,-3.553371224552396],[-56.53852161951368,-3.550471253693107],[-56.53852161951368,-3.546771230176094],[-56.53732158243661,-3.54227123782039],[-56.534321615472486,-3.539571259170774],[-56.53352156281476,-3.535471251234415],[-56.53582155704503,-3.532771272584799],[-56.541021605953624,-3.530171290040019],[-56.54292161576455,-3.528171284124258],[-56.54422156512742,-3.526171278208497],[-56.545921582728674,-3.521271301433447],[-56.545621594414165,-3.516171248629692],[-56.54872155748313,-3.511771252378824],[-56.552521577104976,-3.508871281519535],[-56.55472157523041,-3.508271304890517],[-56.55852159485226,-3.509371262043718],[-56.562421610578944,-3.514571227133277],[-56.56552157364791,-3.514971295371655],[-56.56842162832623,-3.515071291476491],[-56.57102161087101,-3.516171248629692],[-56.57322160899644,-3.517671274021271],[-56.576521564275076,-3.516271244734529],[-56.579221626743724,-3.513571266084913],[-56.580021595582416,-3.509971238672736],[-56.57992159947758,-3.508271304890517],[-56.57982160337274,-3.506271298974756],[-56.57902155071502,-3.502771267667416],[-56.57862156629567,-3.499971292912963],[-56.57762160524731,-3.49657125771046],[-56.5773216169328,-3.493271302431825],[-56.57752160914247,-3.490571239963177],[-56.57822158187633,-3.487171288579705],[-56.57962161116307,-3.481571255251768],[-56.58042158000176,-3.478071223944429],[-56.58082156442111,-3.475371245294812],[-56.63632158190017,-3.377071302384141],[-56.7081215512008,-3.36577123962343],[-56.70902159996336,-3.362271292135123],[-56.70932158827787,-3.359071249142292],[-56.70972157269721,-3.355471305549148],[-56.71132159419363,-3.352671246975663],[-56.71322160400455,-3.350971229374412],[-56.714521553367426,-3.348471242934469],[-56.71792158856993,-3.347071297466758],[-56.72112163156276,-3.344871299341324],[-56.724121598526885,-3.342471225187186],[-56.725621623918464,-3.339871242642406],[-56.727921618148734,-3.338171225041154],[-56.730221612379005,-3.336471291258934],[-56.7323216143996,-3.333971304818991],[-56.73255882225936,-3.333935430273417],[-56.732029002159884,-3.330430034548047],[-56.73191836103802,-3.327410034835342],[-56.732379952445676,-3.323169965296987],[-56.73307045362895,-3.3194599673152],[-56.735088396817495,-3.313670000061396],[-56.73760992474859,-3.308460060507062],[-56.73960884101694,-3.305020127445462],[-56.74158101901417,-3.300920035690072],[-56.74232868477707,-3.298630015924576],[-56.74406818114226,-3.291050009429458],[-56.74753191880887,-3.28239016234875],[-56.74921039491897,-3.277770057320598],[-56.750759202987005,-3.274100124835971],[-56.752418568357875,-3.2701700180769],[-56.75370032899087,-3.266210155561569],[-56.75606159493332,-3.262120038270953],[-56.75775909796362,-3.256489997729662],[-56.758468709886124,-3.254750082269314],[-56.758838687092116,-3.253449965268377],[-56.7595836818078,-3.252097934090424],[-56.76131822168832,-3.248950056731704],[-56.76224903203552,-3.246820047497752],[-56.76274876110261,-3.245030008256439],[-56.76342174410825,-3.241563588380817],[-56.7645054403693,-3.239756869152191],[-56.72982162795966,-3.164171297103169],[-56.68472288176422,-3.068417022004726],[-56.6846741829068,-3.068313505500558],[-56.6527216136456,-3.000471303239467],[-56.65742159821098,-3.050671275705102],[-56.64412161335354,-3.113271268084648],[-56.66752162389462,-3.152871234342459],[-56.62126602986099,-3.214249820373635]]]}}]}