{"type":"FeatureCollection","name":"contratos_de_transicao","crs":{"type":"name","properties":{"name":"urn:ogc:def:crs:OGC:1.3:CRS84"}},"features":[{"type":"Feature","properties":{"OBJECTID":19,"NOME_":"Elmo Balbinºot","CATEGORIA":"CONTRATO DE TRANSIÇÃO","MUNICIPIO_":"Portel","CAT_UC":"nºda","DATA_DE_CR":"01/10/2008","APTAS_PARA":"Não/Aguardar Pousio","CAT_TERRIT":"ÁÁreas estaduais destinºadas a produção florestal","AREA_HA":1723.41804009,"DESTINACAO":"Floresta Destinºada","ORGAO_GEST":"IDEFLOR-Bio/ITERPA","PASSIVEIS":"Sim","ESTAGIO":"Idenºtificação/Delimitação/Demarcação","SITUACAO_L":"Enºcerrado","AREA_DECRE":1127.03,"TIPO_FLORE":"TIPO A","OBS":null,"Shape_Leng":0.1595179336,"Shape_Area":0.00140574487},"geometry":{"type":"Polygon","coordinates":[[[-50.49618927883165,-2.827391334481263],[-50.51416552981783,-2.857191219825665],[-50.557572861125664,-2.820827657920745],[-50.51782852307082,-2.810997558120107],[-50.49618927883165,-2.827391334481263]]]}},{"type":"Feature","properties":{"OBJECTID":20,"NOME_":"Emapa","CATEGORIA":"CONTRATO DE TRANSIÇÃO","MUNICIPIO_":"Chaves","CAT_UC":"nºda","DATA_DE_CR":"04/11/2009","APTAS_PARA":"Não/Aguardar Pousio","CAT_TERRIT":"ÁÁreas estaduais destinºadas a produção florestal","AREA_HA":8282.07098579,"DESTINACAO":"Floresta Destinºada","ORGAO_GEST":"IDEFLOR-Bio/ITERPA","PASSIVEIS":"Sim","ESTAGIO":"Idenºtificação/Delimitação/Demarcação","SITUACAO_L":"Enºcerrado","AREA_DECRE":8124.4,"TIPO_FLORE":"TIPO A","OBS":"Sobreposição com a APA Marajóó","Shape_Leng":0.57238807011,"Shape_Area":0.00672510619},"geometry":{"type":"Polygon","coordinates":[[[-50.059881724494744,-0.179597942513226],[-50.061881739560306,-0.181297954355216],[-50.0632817502356,-0.183497970173619],[-50.06658177365796,-0.18589798694552],[-50.07008179864272,-0.188198003492516],[-50.07338182307626,-0.191498027012187],[-50.075881841070725,-0.193498040397685],[-50.07748185300676,-0.195898057746831],[-50.07848186074267,-0.198798077567801],[-50.078881863356855,-0.201698099154669],[-50.079381867725374,-0.204498117930427],[-50.07998187195585,-0.20739813831409],[-50.08178188412319,-0.209498153855463],[-50.082881892521925,-0.211998171367782],[-50.08398190095534,-0.215498196013016],[-50.08588191469465,-0.217298209073817],[-50.087881929543585,-0.218998221089862],[-50.09088195103209,-0.218598217462784],[-50.09468197864828,-0.219898227531246],[-50.098282003644954,-0.218798219319524],[-50.099882015952176,-0.221798240543592],[-50.10248203505307,-0.224398258616361],[-50.10528205464408,-0.225298265545575],[-50.106382063216415,-0.22749828034722],[-50.10628206265136,-0.234998333630813],[-50.10628206311594,-0.240098369548377],[-50.10618206206237,-0.243098390645002],[-50.120882168257424,-0.243198391625015],[-50.129082227655886,-0.243198390755765],[-50.12908222850655,-0.249898438013361],[-50.12908222863342,-0.268598570212987],[-50.128682226803164,-0.272698599648095],[-50.106282063964954,-0.273098603002495],[-50.10628206450957,-0.279698649455327],[-50.10628206427708,-0.286298697065035],[-50.106582067941815,-0.303598819332308],[-50.1120821077518,-0.303798819982774],[-50.12038216733214,-0.303698818159205],[-50.12188217769295,-0.309298858255829],[-50.121882178526164,-0.314798896873469],[-50.12478219958615,-0.314798897068329],[-50.13328226153823,-0.314798896424236],[-50.13658228464226,-0.314798896291279],[-50.14318233254494,-0.314798896373134],[-50.1472823625092,-0.314798895725573],[-50.151982396509254,-0.314798895351657],[-50.15238239851817,-0.303998819908713],[-50.15768243651945,-0.303798818011558],[-50.16308247614808,-0.303698816780695],[-50.167882510623485,-0.303698816291558],[-50.16878251677406,-0.285198685690773],[-50.168782515198075,-0.260998515511858],[-50.16878251480347,-0.24559840646549],[-50.16598249470286,-0.244498398582948],[-50.16598249468342,-0.239798365577542],[-50.151782391175175,-0.219298220651865],[-50.144982342460594,-0.219298221168629],[-50.14118231517688,-0.219298221018221],[-50.11508212567355,-0.219298222194084],[-50.115082126027005,-0.210898162242472],[-50.11508212579798,-0.199198080115934],[-50.11508212562342,-0.195798055622731],[-50.1150821248944,-0.18659799039591],[-50.113682114835854,-0.180297946130906],[-50.108182075654895,-0.180297946041719],[-50.100782020800125,-0.180397947523943],[-50.08188188442,-0.179797943244239],[-50.081881884378504,-0.176597920756876],[-50.08188188369661,-0.173097895305204],[-50.08118187835845,-0.149797730518458],[-50.07858186026857,-0.150397734751266],[-50.07578183977904,-0.151197740752707],[-50.07458183163914,-0.153797759353665],[-50.074581832015724,-0.167297854995638],[-50.06418175585503,-0.167297855755407],[-50.0495816504835,-0.167297856209359],[-50.04668162886395,-0.168497864037477],[-50.04928164846399,-0.169997874662442],[-50.051481664329344,-0.172697893904854],[-50.05528169144361,-0.174497906470094],[-50.0582817129299,-0.176897923058391],[-50.059881724494744,-0.179597942513226]]]}},{"type":"Feature","properties":{"OBJECTID":21,"NOME_":"Emelcinºdo da Costa Cunºha","CATEGORIA":"CONTRATO DE TRANSIÇÃO","MUNICIPIO_":"Portel","CAT_UC":"nºda","DATA_DE_CR":"23/09/2009","APTAS_PARA":"Não/Aguardar Pousio","CAT_TERRIT":"ÁÁreas estaduais destinºadas a produção florestal","AREA_HA":2351.8342629,"DESTINACAO":"Floresta Destinºada","ORGAO_GEST":"IDEFLOR-Bio/ITERPA","PASSIVEIS":"Sim","ESTAGIO":"Idenºtificação/Delimitação/Demarcação","SITUACAO_L":"Enºcerrado","AREA_DECRE":2353.85,"TIPO_FLORE":"TIPO A","OBS":"Sobreposição com o Decreto Estadual nºº579/2012","Shape_Leng":0.17162961064,"Shape_Area":0.00191598654},"geometry":{"type":"Polygon","coordinates":[[[-51.055189146546354,-2.024010554188806],[-51.05918917418819,-2.024910559505031],[-51.077289301945484,-2.021510531429442],[-51.09278940752063,-2.005010416048151],[-51.08598934908116,-1.967610164896712],[-51.05408912429573,-1.971710201482836],[-51.05318911823946,-1.975810229337924],[-51.05528913386371,-1.980010256870457],[-51.053289121716944,-1.983410280347982],[-51.05318912228199,-1.988310314581724],[-51.05158911342869,-1.999310389264849],[-51.049189096974146,-2.002310409748873],[-51.0494891023028,-2.01171047323993],[-51.05178911900862,-2.01521049692326],[-51.051689119213506,-2.018710519908495],[-51.0528891285025,-2.021810540640161],[-51.055189146546354,-2.024010554188806]]]}},{"type":"Feature","properties":{"OBJECTID":78,"NOME_":"Global Inºd Com e Nav Ltda","CATEGORIA":"CONTRATO DE TRANSIÇÃO","MUNICIPIO_":"Portel","CAT_UC":"nºda","DATA_DE_CR":"08/01/2010","APTAS_PARA":"Não/Aguardar Pousio","CAT_TERRIT":"ÁÁreas estaduais destinºadas a produção florestal","AREA_HA":5384.9590875,"DESTINACAO":"Floresta Destinºada","ORGAO_GEST":"IDEFLOR-Bio/ITERPA","PASSIVEIS":"Sim","ESTAGIO":"Idenºtificação/Delimitação/Demarcação","SITUACAO_L":"Enºcerrado","AREA_DECRE":5393.16,"TIPO_FLORE":"TIPO A","OBS":"Sobreposição com o Decreto Estadual nºº579/2012","Shape_Leng":0.30692326048,"Shape_Area":0.00438768787},"geometry":{"type":"Polygon","coordinates":[[[-51.33850354757686,-2.063187316775043],[-51.28958354144925,-2.093007927418853],[-51.292900475949466,-2.142053722677474],[-51.34499428645904,-2.11399397734283],[-51.347717512553515,-2.111185703643685],[-51.349279068233386,-2.10806259083239],[-51.35099678096094,-2.104158698218555],[-51.353339111723244,-2.100489045847951],[-51.35661838218391,-2.098068637266692],[-51.36044419059283,-2.09705361792885],[-51.36395768951701,-2.096975538875313],[-51.36754926768191,-2.096272843651718],[-51.36911082306682,-2.097287850195585],[-51.372780485913495,-2.097522081067382],[-51.375278976069865,-2.09799055103133],[-51.37645014104686,-2.097990548313419],[-51.37871439965318,-2.098927477790426],[-51.380822497370616,-2.096868178200396],[-51.38205222596946,-2.096926736703665],[-51.3821107791191,-2.095228542697555],[-51.38345761757864,-2.093998821600962],[-51.38439455846242,-2.091890724941038],[-51.38685400646375,-2.090426763300968],[-51.38878642730248,-2.091129462439653],[-51.390308950570216,-2.091129461874061],[-51.39042606371447,-2.089870460670056],[-51.39215353228309,-2.090192526414796],[-51.39148011382281,-2.088933523485252],[-51.39437875491751,-2.087264607662007],[-51.395520636135984,-2.086356958547071],[-51.39642059587527,-2.087652594809754],[-51.39665163913571,-2.087532993764171],[-51.39622333620213,-2.08588848979258],[-51.396539195227206,-2.084983581453059],[-51.37101800342981,-2.060268771022493],[-51.33850354757686,-2.063187316775043]]]}},{"type":"Feature","properties":{"OBJECTID":79,"NOME_":"Madeiras Cunºha","CATEGORIA":"CONTRATO DE TRANSIÇÃO","MUNICIPIO_":"Melgaço","CAT_UC":"nºda","DATA_DE_CR":"21/06/2010","APTAS_PARA":"Não/Aguardar Pousio","CAT_TERRIT":"ÁÁreas estaduais destinºadas a produção florestal","AREA_HA":2029.26835318,"DESTINACAO":"Floresta Destinºada","ORGAO_GEST":"IDEFLOR-Bio/ITERPA","PASSIVEIS":"Sim","ESTAGIO":"Idenºtificação/Delimitação/Demarcação","SITUACAO_L":"Enºcerrado","AREA_DECRE":2029.27,"TIPO_FLORE":"TIPO A","OBS":null,"Shape_Leng":0.19335958228,"Shape_Area":0.00165250297},"geometry":{"type":"Polygon","coordinates":[[[-51.03475964650977,-1.754605255623403],[-51.063059852986726,-1.777105401128949],[-51.07355992175167,-1.754205242755688],[-51.07095990206801,-1.747705199918414],[-51.047459731674905,-1.732205099510054],[-51.04545971440251,-1.723205039735888],[-51.04075967857557,-1.710904957782304],[-51.03775965710378,-1.709704949566571],[-51.021859542825155,-1.708504945986704],[-51.021659543839576,-1.716304998808823],[-51.01805951804107,-1.716605001348967],[-51.017159512416015,-1.719905023366948],[-51.02605957745527,-1.726605067271862],[-51.03475964650977,-1.754605255623403]]]}},{"type":"Feature","properties":{"OBJECTID":80,"NOME_":"Pedro Adami","CATEGORIA":"CONTRATO DE TRANSIÇÃO","MUNICIPIO_":"Portel","CAT_UC":"nºda","DATA_DE_CR":"11/09/2009","APTAS_PARA":"Não/Aguardar Pousio","CAT_TERRIT":"ÁÁreas estaduais destinºadas a produção florestal","AREA_HA":1908.72053657,"DESTINACAO":"Floresta Destinºada","ORGAO_GEST":"IDEFLOR-Bio/ITERPA","PASSIVEIS":"Sim","ESTAGIO":"Idenºtificação/Delimitação/Demarcação","SITUACAO_L":"Enºcerrado","AREA_DECRE":1907.5,"TIPO_FLORE":"TIPO A","OBS":null,"Shape_Leng":0.21715328217,"Shape_Area":0.00155681166},"geometry":{"type":"Polygon","coordinates":[[[-50.55305652658069,-2.811012543236473],[-50.57675669946002,-2.815612565004869],[-50.63925712626644,-2.75791215333561],[-50.61795697180577,-2.754112136131312],[-50.55305652658069,-2.811012543236473]]]}},{"type":"Feature","properties":{"OBJECTID":83,"NOME_":"São Dominºgos Inºd e Navegação Ltda","CATEGORIA":"CONTRATO DE TRANSIÇÃO","MUNICIPIO_":"Melgaço","CAT_UC":"nºda","DATA_DE_CR":"08/11/2010","APTAS_PARA":"Não/Aguardar Pousio","CAT_TERRIT":"ÁÁreas estaduais destinºadas a produção florestal","AREA_HA":772.084814257,"DESTINACAO":"Floresta Destinºada","ORGAO_GEST":"IDEFLOR-Bio/ITERPA","PASSIVEIS":"Sim","ESTAGIO":"Idenºtificação/Delimitação/Demarcação","SITUACAO_L":"Enºcerrado","AREA_DECRE":774.64,"TIPO_FLORE":"TIPO A","OBS":null,"Shape_Leng":0.10492838047,"Shape_Area":0.00062868446},"geometry":{"type":"Polygon","coordinates":[[[-51.23005953403293,-1.709472525548392],[-51.24857216961158,-1.710308934849422],[-51.249798901593124,-1.675458353738236],[-51.23111898450696,-1.676685097859888],[-51.23005953403293,-1.709472525548392]]]}},{"type":"Feature","properties":{"OBJECTID":84,"NOME_":"Serraria Lima_Castanºheira","CATEGORIA":"CONTRATO DE TRANSIÇÃO","MUNICIPIO_":"Bagre","CAT_UC":"nºda","DATA_DE_CR":"30/10/2009","APTAS_PARA":"Não/Aguardar Pousio","CAT_TERRIT":"ÁÁreas estaduais destinºadas a produção florestal","AREA_HA":2439.69763433,"DESTINACAO":"Floresta Destinºada","ORGAO_GEST":"IDEFLOR-Bio/ITERPA","PASSIVEIS":"Sim","ESTAGIO":"Idenºtificação/Delimitação/Demarcação","SITUACAO_L":"Enºcerrado","AREA_DECRE":2442.15,"TIPO_FLORE":"TIPO A","OBS":null,"Shape_Leng":0.21175510117,"Shape_Area":0.00198905796},"geometry":{"type":"Polygon","coordinates":[[[-50.112753242372946,-2.50961065991379],[-50.14865350426055,-2.515910690919895],[-50.15715356572673,-2.517410698062406],[-50.15605355583659,-2.508610638157108],[-50.14885350101679,-2.501910595549987],[-50.149453497907075,-2.478710437462155],[-50.1590535675673,-2.480510445809159],[-50.15985356877138,-2.464410336366086],[-50.122953298879,-2.458610308635457],[-50.12205329723281,-2.473710412255912],[-50.11615325520347,-2.47281040799345],[-50.11625325911609,-2.482210471392136],[-50.11305323530394,-2.481810470494736],[-50.112753242372946,-2.50961065991379]]]}},{"type":"Feature","properties":{"OBJECTID":85,"NOME_":"Serraria Oliveira (Macasa)","CATEGORIA":"CONTRATO DE TRANSIÇÃO","MUNICIPIO_":"Bagre","CAT_UC":"nºda","DATA_DE_CR":"09/07/2010","APTAS_PARA":"Não/Aguardar Pousio","CAT_TERRIT":"ÁÁreas estaduais destinºadas a produção florestal","AREA_HA":2015.63201674,"DESTINACAO":"Floresta Destinºada","ORGAO_GEST":"IDEFLOR-Bio/ITERPA","PASSIVEIS":"Sim","ESTAGIO":"Idenºtificação/Delimitação/Demarcação","SITUACAO_L":"Enºcerrado","AREA_DECRE":2023.26,"TIPO_FLORE":"TIPO A","OBS":null,"Shape_Leng":0.16493905633,"Shape_Area":0.00164368811},"geometry":{"type":"Polygon","coordinates":[[[-50.037652745462594,-2.646911623556662],[-50.08035306279862,-2.670611768384731],[-50.09655317042166,-2.640511558394167],[-50.05355285059403,-2.617711418040415],[-50.037652745462594,-2.646911623556662]]]}},{"type":"Feature","properties":{"OBJECTID":86,"NOME_":"Thiago José de Oliveira Sá","CATEGORIA":"CONTRATO DE TRANSIÇÃO","MUNICIPIO_":"Portel","CAT_UC":"nºda","DATA_DE_CR":"18/11/2008","APTAS_PARA":"Não/Aguardar Pousio","CAT_TERRIT":"ÁÁreas estaduais destinºadas a produção florestal","AREA_HA":1386.13360752,"DESTINACAO":"Floresta Destinºada","ORGAO_GEST":"IDEFLOR-Bio/ITERPA","PASSIVEIS":"Sim","ESTAGIO":"Idenºtificação/Delimitação/Demarcação","SITUACAO_L":"Enºcerrado","AREA_DECRE":1972.94,"TIPO_FLORE":"TIPO A","OBS":null,"Shape_Leng":0.16078837053,"Shape_Area":0.00113117013},"geometry":{"type":"Polygon","coordinates":[[[-50.163208098444045,-3.220989060416969],[-50.16380394949431,-3.221703936259587],[-50.19974320470595,-3.208256830406583],[-50.19744318492474,-3.199442771586007],[-50.204743235433966,-3.196828751298483],[-50.20204321279209,-3.188278694422479],[-50.20454322972881,-3.187448687690335],[-50.199443186656595,-3.170128573862542],[-50.17364300350141,-3.178617642407744],[-50.173667900023815,-3.178955731184601],[-50.17377078156056,-3.179272949155973],[-50.173910295989515,-3.179700842826605],[-50.17406305905553,-3.180113148869793],[-50.174137882996206,-3.180313456129966],[-50.17421114701813,-3.180524675583285],[-50.17436546921044,-3.180966598084183],[-50.17451433552719,-3.181392933022721],[-50.174599291639595,-3.181816149492363],[-50.1746865851718,-3.182255735157923],[-50.17474114326939,-3.182539438788353],[-50.17480895200845,-3.182962655825577],[-50.17487909873876,-3.183396785287755],[-50.17490793709669,-3.183576827299817],[-50.17529452327301,-3.185031978007714],[-50.17544572783686,-3.185608738694668],[-50.175500286836666,-3.185844118445289],[-50.1755797868866,-3.18620498403817],[-50.17567097704409,-3.186612612805277],[-50.17581828506462,-3.18704284456669],[-50.175950784662405,-3.187426312270077],[-50.176103548832145,-3.187849530110213],[-50.17626878228049,-3.188300805225879],[-50.17643089928191,-3.188745066696242],[-50.176476105138306,-3.188859639318139],[-50.176756167815256,-3.189495141352666],[-50.176945940593214,-3.189992948652332],[-50.17706695518871,-3.191552381162637],[-50.177149465595676,-3.193037552939415],[-50.17717421874772,-3.193455601613834],[-50.17714946571061,-3.194096426067631],[-50.176805676632796,-3.19526256219126],[-50.17673691795369,-3.195540344673987],[-50.176547146832206,-3.196299433259242],[-50.176129098291256,-3.197311550557458],[-50.17587331877536,-3.198018383420617],[-50.175592786053585,-3.199052503640473],[-50.175348008493415,-3.200306648839444],[-50.17525449742743,-3.201305016031029],[-50.17505372417031,-3.201764318650532],[-50.17486670338042,-3.202988211722413],[-50.17463842659021,-3.203494270417252],[-50.174352393613276,-3.20404708496801],[-50.17400310236127,-3.204693409957997],[-50.17369231660638,-3.205072954415755],[-50.173271517619355,-3.205320483161415],[-50.17277095948697,-3.205515756892908],[-50.172347409693145,-3.205650523062616],[-50.17138754715285,-3.206195085756463],[-50.17050194497665,-3.206681892777283],[-50.16999588569223,-3.207025684028395],[-50.169555834254425,-3.207462984646611],[-50.16918179085934,-3.207713263978007],[-50.16882424893356,-3.208040552025523],[-50.16807891240347,-3.20891515430111],[-50.167245565657026,-3.210119794317166],[-50.1669017755774,-3.210499338998829],[-50.166684499858036,-3.211071405515725],[-50.166428720114425,-3.211596716239171],[-50.16629395518862,-3.212042268981918],[-50.16595841629794,-3.212630837074641],[-50.16571088800981,-3.213136896178412],[-50.165281837858856,-3.213970243272342],[-50.164968300818884,-3.214630319775836],[-50.16488304139938,-3.214916353995079],[-50.16480878328929,-3.215108875316616],[-50.16470427115996,-3.215584681359815],[-50.164627262101476,-3.216090739913568],[-50.164357730680706,-3.216525291075982],[-50.16412945425583,-3.217515406284292],[-50.164090949563274,-3.217683175480317],[-50.16392318138196,-3.218147980004517],[-50.1637801639086,-3.218695292843677],[-50.16339236963256,-3.219176599850812],[-50.163213597907486,-3.219754166847906],[-50.16330986043539,-3.220416994497441],[-50.163208098444045,-3.220989060416969]]]}},{"type":"Feature","properties":{"OBJECTID":87,"NOME_":"Vitória Régia Exportadora","CATEGORIA":"CONTRATO DE TRANSIÇÃO","MUNICIPIO_":"Almerim","CAT_UC":"nºda","DATA_DE_CR":"04/12/2009","APTAS_PARA":"Não/Aguardar Pousio","CAT_TERRIT":"ÁÁreas estaduais destinºadas a produção florestal","AREA_HA":1254.28397115,"DESTINACAO":"Floresta Destinºada","ORGAO_GEST":"IDEFLOR-Bio/ITERPA","PASSIVEIS":"Sim","ESTAGIO":"Idenºtificação/Delimitação/Demarcação","SITUACAO_L":"Enºcerrado","AREA_DECRE":1302.16,"TIPO_FLORE":"TIPO A","OBS":"Área sobreposta nºa Conºcessão Florestal da UMF II de responºsabilidade da Madeireira Segredo","Shape_Leng":0.18655302144,"Shape_Area":0.00102011334},"geometry":{"type":"Polygon","coordinates":[[[-53.54815459928824,-1.008881768798688],[-53.544711273254165,-1.010525144402948],[-53.54319163024269,-1.01159267487202],[-53.54269133941,-1.012318843601861],[-53.54212391829162,-1.013754182752677],[-53.54210977290927,-1.01385484170055],[-53.54171584492826,-1.016658044551093],[-53.54168060675232,-1.016908802123737],[-53.54116408202401,-1.01887175304006],[-53.541068133132626,-1.019392287845903],[-53.54042671386901,-1.022262839069469],[-53.53970502038112,-1.024552208934608],[-53.53899927765002,-1.025632738207321],[-53.53773054498566,-1.027826413702087],[-53.53619516525919,-1.029964903674738],[-53.53526444228817,-1.030653671061884],[-53.53518983293907,-1.030753191561018],[-53.53364824085742,-1.03209338091915],[-53.53133616734425,-1.033694670938871],[-53.52898313231839,-1.035723019457237],[-53.528959054930965,-1.035764775212556],[-53.52823802884552,-1.036397269464373],[-53.528143022854465,-1.036447205638922],[-53.526974735813496,-1.037454284783621],[-53.52759305965128,-1.037308254461323],[-53.52624271522984,-1.038208483495396],[-53.52451376312314,-1.038208484059737],[-53.52251343337133,-1.039021118669837],[-53.522436610146656,-1.038526059470144],[-53.52165240679028,-1.038636564777107],[-53.5204733237548,-1.038641040535367],[-53.519534748960496,-1.038426487243157],[-53.51878383339181,-1.037958106348469],[-53.51811755882352,-1.037336588346875],[-53.51782368002523,-1.0368145526528],[-53.51764564242126,-1.036090169211832],[-53.51769235973768,-1.035101547093291],[-53.51778466724511,-1.034935768863363],[-53.51787460315603,-1.034571353339857],[-53.518214059654724,-1.03393269827518],[-53.51914346483005,-1.032891577556313],[-53.51920486018861,-1.032809039696929],[-53.51960673833594,-1.03206731710344],[-53.51981809984278,-1.031449888248915],[-53.51979560891783,-1.031164232188416],[-53.519905911149465,-1.030700373389493],[-53.51991689664828,-1.030487854305193],[-53.51980170782821,-1.029958721093465],[-53.51957838773308,-1.029334739661238],[-53.51859899553523,-1.028052234257416],[-53.51755479725239,-1.027176214468795],[-53.51634358854494,-1.025809235420809],[-53.5159156042792,-1.024924506137381],[-53.515770169362895,-1.024243931922229],[-53.51562227122031,-1.023947109320886],[-53.51524168985554,-1.022800855968569],[-53.5150722840724,-1.02248313695145],[-53.51431556675789,-1.021885851182162],[-53.51361436604492,-1.021578336718846],[-53.51172631641771,-1.021246365553623],[-53.51101627268554,-1.021257657977685],[-53.510784596373185,-1.021312493897199],[-53.510522458653895,-1.021409871222602],[-53.50991117371632,-1.021899612965342],[-53.5088525351656,-1.022861291948118],[-53.5079555373066,-1.024358868004526],[-53.507613541306455,-1.02458699955406],[-53.50920654493973,-1.049301513786361],[-53.551148502088495,-1.052782651973757],[-53.54848918538221,-1.009275805883703],[-53.54846137033161,-1.008820666910253],[-53.54815459928824,-1.008881768798688]]]}},{"type":"Feature","properties":{"OBJECTID":89,"NOME_":"Silmar Gonºçalves dos Sanºtos","CATEGORIA":"CONTRATO DE TRANSIÇÃO","MUNICIPIO_":"Juruti","CAT_UC":"nºda","DATA_DE_CR":"21/05/2008","APTAS_PARA":"Não/Aguardar Pousio","CAT_TERRIT":"ÁÁreas estaduais destinºadas a produção florestal","AREA_HA":2459.06089455,"DESTINACAO":"Floresta Destinºada","ORGAO_GEST":"IDEFLOR-Bio/ITERPA","PASSIVEIS":"Sim","ESTAGIO":"Idenºtificação/Delimitação/Demarcação","SITUACAO_L":"Enºcerrado","AREA_DECRE":2464.11,"TIPO_FLORE":"TIPO A","OBS":null,"Shape_Leng":0.18001672981,"Shape_Area":0.00200535047},"geometry":{"type":"Polygon","coordinates":[[[-56.406216790568635,-2.651282700586023],[-56.384044347576264,-2.647262955097744],[-56.362821640584,-2.641762350728413],[-56.35279678398274,-2.684793489468802],[-56.39787512465506,-2.695537765156928],[-56.406216790568635,-2.651282700586023]]]}},{"type":"Feature","properties":{"OBJECTID":90,"NOME_":"Ulisses Vieira Coutinºho dos Sanºtos","CATEGORIA":"CONTRATO DE TRANSIÇÃO","MUNICIPIO_":"Juruti","CAT_UC":"nºda","DATA_DE_CR":"11/04/2008","APTAS_PARA":"Não/Aguardar Pousio","CAT_TERRIT":"ÁÁreas estaduais destinºadas a produção florestal","AREA_HA":1997.08223791,"DESTINACAO":"Floresta Destinºada","ORGAO_GEST":"IDEFLOR-Bio/ITERPA","PASSIVEIS":"Sim","ESTAGIO":"Idenºtificação/Delimitação/Demarcação","SITUACAO_L":"Enºcerrado","AREA_DECRE":2010.59,"TIPO_FLORE":"TIPO A","OBS":null,"Shape_Leng":0.16460447509,"Shape_Area":0.00162854009},"geometry":{"type":"Polygon","coordinates":[[[-56.384044347576264,-2.647262955097744],[-56.406216790568635,-2.651282700586023],[-56.42746827696806,-2.656794173803689],[-56.42778821432529,-2.617930214434409],[-56.38295086683189,-2.611346892918107],[-56.384044347576264,-2.647262955097744]]]}},{"type":"Feature","properties":{"OBJECTID":91,"NOME_":"Arca Inºdustria Agropecuaria Ltda","CATEGORIA":"CONTRATO DE TRANSIÇÃO","MUNICIPIO_":"Bagre","CAT_UC":"nºda","DATA_DE_CR":"21/03/2011","APTAS_PARA":"Não/Aguardar Pousio","CAT_TERRIT":"ÁÁreas estaduais destinºadas a produção florestal","AREA_HA":1963.40612431,"DESTINACAO":"Floresta Destinºada","ORGAO_GEST":"IDEFLOR-Bio/ITERPA","PASSIVEIS":"Sim","ESTAGIO":"Idenºtificação/Delimitação/Demarcação","SITUACAO_L":"Enºcerrado","AREA_DECRE":2491.43,"TIPO_FLORE":"TIPO A","OBS":null,"Shape_Leng":0.18879606552,"Shape_Area":0.00160035867},"geometry":{"type":"Polygon","coordinates":[[[-50.19139746349407,-2.351074461294331],[-50.20957733285246,-2.363948171680704],[-50.210428563856624,-2.36305361183156],[-50.23958713796213,-2.317867761169509],[-50.22150567592189,-2.306336513227393],[-50.20615201598628,-2.2968913052689],[-50.19360670948032,-2.316125716667784],[-50.209008718886366,-2.325534428357571],[-50.19139746349407,-2.351074461294331]]]}},{"type":"Feature","properties":{"OBJECTID":95,"NOME_":"Erivanº Rodrigues Apinºajés","CATEGORIA":"CONTRATO DE TRANSIÇÃO","MUNICIPIO_":"Sanºtarém","CAT_UC":"nºda","DATA_DE_CR":"19/08/2010","APTAS_PARA":"Não/Aguardar Pousio","CAT_TERRIT":"ÁÁreas estaduais destinºadas a produção florestal","AREA_HA":1595.97574441,"DESTINACAO":"Floresta Destinºada","ORGAO_GEST":"IDEFLOR-Bio/ITERPA","PASSIVEIS":"Sim","ESTAGIO":"Idenºtificação/Delimitação/Demarcação","SITUACAO_L":"Enºcerrado","AREA_DECRE":1626.4,"TIPO_FLORE":"TIPO A","OBS":"Área inºcluída nºa Conºcessão Florestal da UMF I de responºsabilidade da WERSAN Inºdústria, Comércio e Exportação LTDA","Shape_Leng":0.19610750204,"Shape_Area":0.00130188777},"geometry":{"type":"Polygon","coordinates":[[[-56.02313087968503,-2.883584564150794],[-56.02313141173585,-2.883585104710278],[-56.03657593749824,-2.871557249912541],[-56.01694359629988,-2.849803976554711],[-55.97914298630212,-2.80791966973328],[-55.97851995133664,-2.807229327244613],[-55.986004142105116,-2.841734245294674],[-55.98622676622904,-2.842760573883936],[-55.98622726823953,-2.84276115446778],[-55.986485693239786,-2.843060027422155],[-55.98681350329986,-2.843439145391187],[-56.00992108383281,-2.870163525230907],[-56.02313087968503,-2.883584564150794]]]}},{"type":"Feature","properties":{"OBJECTID":97,"NOME_":"Rivaldo Salvianºo Campos","CATEGORIA":"CONTRATO DE TRANSIÇÃO","MUNICIPIO_":"Porto de Moz","CAT_UC":"nºda","DATA_DE_CR":"12/05/2011","APTAS_PARA":"Não/Aguardar Pousio","CAT_TERRIT":"ÁÁreas estaduais destinºadas a produção florestal","AREA_HA":1841.15130441,"DESTINACAO":"Floresta Destinºada","ORGAO_GEST":"IDEFLOR-Bio/ITERPA","PASSIVEIS":"Sim","ESTAGIO":"Idenºtificação/Delimitação/Demarcação","SITUACAO_L":"Enºcerrado","AREA_DECRE":1787.75,"TIPO_FLORE":"TIPO A","OBS":null,"Shape_Leng":0.17729692767,"Shape_Area":0.001500188},"geometry":{"type":"Polygon","coordinates":[[[-51.98949295332022,-2.129370736981855],[-51.98945777436853,-2.142452289699975],[-52.03917810496176,-2.104804242340208],[-52.039150320825115,-2.083109654616749],[-52.01328282185597,-2.08225389868727],[-52.01399839902558,-2.086404292532677],[-52.008706807302474,-2.092890796173265],[-52.00324445474416,-2.098182430490567],[-51.98949295332022,-2.129370736981855]]]}},{"type":"Feature","properties":{"OBJECTID":99,"NOME_":"Lima Florestal (Faz Piquia)","CATEGORIA":"CONTRATO DE TRANSIÇÃO","MUNICIPIO_":"Bagre","CAT_UC":"nºda","DATA_DE_CR":"09/08/2011","APTAS_PARA":"Não/Aguardar Pousio","CAT_TERRIT":"ÁÁreas estaduais destinºadas a produção florestal","AREA_HA":2161.10034654,"DESTINACAO":"Floresta Destinºada","ORGAO_GEST":"IDEFLOR-Bio/ITERPA","PASSIVEIS":"Sim","ESTAGIO":"Idenºtificação/Delimitação/Demarcação","SITUACAO_L":"Enºcerrado","AREA_DECRE":2159.78,"TIPO_FLORE":"TIPO A","OBS":null,"Shape_Leng":0.21066510402,"Shape_Area":0.00176202476},"geometry":{"type":"Polygon","coordinates":[[[-50.15715356572673,-2.517410698062406],[-50.14865350426055,-2.515910690919895],[-50.112753242372946,-2.50961065991379],[-50.11285324589687,-2.518510720871973],[-50.093353103594495,-2.515210705348693],[-50.09325310621989,-2.523910764442121],[-50.10385318271938,-2.525910774281897],[-50.103653184858445,-2.534510832628428],[-50.13955344675054,-2.540810863247032],[-50.13935344862119,-2.54971092453917],[-50.161653611215854,-2.553310941302527],[-50.16285360819853,-2.518210701664714],[-50.15715356572673,-2.517410698062406]]]}},{"type":"Feature","properties":{"OBJECTID":100,"NOME_":"Aloísio José de Resenºde","CATEGORIA":"CONTRATO DE TRANSIÇÃO","MUNICIPIO_":"Ronºdonº do Pará","CAT_UC":"nºda","DATA_DE_CR":"27/10/2011","APTAS_PARA":"Não/Aguardar Pousio","CAT_TERRIT":"ÁÁreas estaduais destinºadas a produção florestal","AREA_HA":2329.8478458,"DESTINACAO":"Floresta Destinºada","ORGAO_GEST":"IDEFLOR-Bio/ITERPA","PASSIVEIS":"Sim","ESTAGIO":"Idenºtificação/Delimitação/Demarcação","SITUACAO_L":"Enºcerrado","AREA_DECRE":1452.0,"TIPO_FLORE":"TIPO A","OBS":null,"Shape_Leng":0.25344388224,"Shape_Area":0.00190372463},"geometry":{"type":"Polygon","coordinates":[[[-48.6076643491657,-4.369767892401001],[-48.58436170838826,-4.428695527191792],[-48.58448561649391,-4.428749086092921],[-48.58471944617878,-4.428727828552667],[-48.58490087810901,-4.428247769505731],[-48.58508081940289,-4.428345198922045],[-48.585358794816784,-4.428941582344862],[-48.58554847892634,-4.429790690342543],[-48.585846081276145,-4.430003262105572],[-48.58654757002137,-4.429620631634066],[-48.58719589994996,-4.429746362638525],[-48.589104162736135,-4.431307855533078],[-48.59120340237541,-4.43219177901824],[-48.59193928673926,-4.432477340904484],[-48.59232911674212,-4.432902609021824],[-48.592506312374894,-4.433292438807314],[-48.592683508595485,-4.434320170308297],[-48.59356948490836,-4.435879486978934],[-48.59431370666954,-4.437509682057396],[-48.59470353639182,-4.438253901383291],[-48.5948992186884,-4.439583396383],[-48.59505792797313,-4.440699193204409],[-48.59516424691935,-4.443569754497389],[-48.59534144278496,-4.44498731585071],[-48.59608566475782,-4.447361730049863],[-48.596085665190344,-4.448743851992162],[-48.596227421615595,-4.449452631982524],[-48.596652691062104,-4.450125973846752],[-48.59725515489782,-4.450692997741783],[-48.597928497277735,-4.451508095058784],[-48.59874359595676,-4.452181436024603],[-48.6002182310109,-4.452757631176667],[-48.61782666472993,-4.406579527355063],[-48.63135635926125,-4.37021287290321],[-48.591201439086774,-4.357737539651623],[-48.58868198334062,-4.364126475135606],[-48.6076643491657,-4.369767892401001]]]}},{"type":"Feature","properties":{"OBJECTID":105,"NOME_":"Franºcisco Moreira de Campos Neto","CATEGORIA":"CONTRATO DE TRANSIÇÃO","MUNICIPIO_":"Porto de Moz","CAT_UC":"nºda","DATA_DE_CR":"30/01/2012","APTAS_PARA":"Não/Aguardar Pousio","CAT_TERRIT":"ÁÁreas estaduais destinºadas a produção florestal","AREA_HA":716.111341741,"DESTINACAO":"Floresta Destinºada","ORGAO_GEST":"IDEFLOR-Bio/ITERPA","PASSIVEIS":"Sim","ESTAGIO":"Idenºtificação/Delimitação/Demarcação","SITUACAO_L":"Enºcerrado","AREA_DECRE":717.35,"TIPO_FLORE":"TIPO A","OBS":null,"Shape_Leng":0.11580048717,"Shape_Area":0.00058341675},"geometry":{"type":"Polygon","coordinates":[[[-52.03671945188569,-2.003698626712662],[-52.03778675514127,-1.996348435754555],[-52.02460216111467,-1.992599980363764],[-52.02245288002479,-1.997797233487972],[-52.02134441316406,-2.005504040430822],[-52.023712802965406,-2.009869462900554],[-52.018248210821184,-2.028882178861011],[-52.017537923339944,-2.033820188735433],[-52.032510429613865,-2.039019610236096],[-52.03362108659587,-2.018671703817233],[-52.03671945188569,-2.003698626712662]]]}},{"type":"Feature","properties":{"OBJECTID":106,"NOME_":"Rosenºil Vaz de Souza","CATEGORIA":"CONTRATO DE TRANSIÇÃO","MUNICIPIO_":"Sanºtarém","CAT_UC":"nºda","DATA_DE_CR":"15/06/2011","APTAS_PARA":"Não/Aguardar Pousio","CAT_TERRIT":"ÁÁreas estaduais destinºadas a produção florestal","AREA_HA":2425.63608484,"DESTINACAO":"Floresta Destinºada","ORGAO_GEST":"IDEFLOR-Bio/ITERPA","PASSIVEIS":"Sim","ESTAGIO":"Idenºtificação/Delimitação/Demarcação","SITUACAO_L":"Enºcerrado","AREA_DECRE":2425.64,"TIPO_FLORE":"TIPO A","OBS":null,"Shape_Leng":0.28418597907,"Shape_Area":0.00197876086},"geometry":{"type":"Polygon","coordinates":[[[-55.76123515749748,-2.93798553146388],[-55.888016739373256,-2.969389164842141],[-55.88794467657482,-2.969023318547386],[-55.887843647819466,-2.968510411595275],[-55.887838016374815,-2.968481817767781],[-55.887874927301596,-2.967219006647042],[-55.88787697727804,-2.967148873210419],[-55.873431627094305,-2.950174904315247],[-55.765742406397294,-2.921096618132253],[-55.76123515749748,-2.93798553146388]]]}},{"type":"Feature","properties":{"OBJECTID":107,"NOME_":"Franºcisco de Souza","CATEGORIA":"CONTRATO DE TRANSIÇÃO","MUNICIPIO_":"Sanºtarém","CAT_UC":"nºda","DATA_DE_CR":"15/06/2011","APTAS_PARA":"Não/Aguardar Pousio","CAT_TERRIT":"ÁÁreas estaduais destinºadas a produção florestal","AREA_HA":2423.76777312,"DESTINACAO":"Floresta Destinºada","ORGAO_GEST":"IDEFLOR-Bio/ITERPA","PASSIVEIS":"Sim","ESTAGIO":"Idenºtificação/Delimitação/Demarcação","SITUACAO_L":"Enºcerrado","AREA_DECRE":2423.77,"TIPO_FLORE":"TIPO A","OBS":null,"Shape_Leng":0.19347030736,"Shape_Area":0.00197712801},"geometry":{"type":"Polygon","coordinates":[[[-55.7067091485618,-2.881099130583721],[-55.70663543057549,-2.881360915299581],[-55.77248837322804,-2.893056410540112],[-55.773039032214456,-2.89315418599773],[-55.78053859438131,-2.865232850858661],[-55.71480251318019,-2.852357389709312],[-55.7067091485618,-2.881099130583721]]]}},{"type":"Feature","properties":{"OBJECTID":108,"NOME_":"Alfredo Sippert","CATEGORIA":"CONTRATO DE TRANSIÇÃO","MUNICIPIO_":"Sanºtarém","CAT_UC":"nºda","DATA_DE_CR":"15/06/2011","APTAS_PARA":"Não/Aguardar Pousio","CAT_TERRIT":"ÁÁreas estaduais destinºadas a produção florestal","AREA_HA":1922.7763672,"DESTINACAO":"Floresta Destinºada","ORGAO_GEST":"IDEFLOR-Bio/ITERPA","PASSIVEIS":"Sim","ESTAGIO":"Idenºtificação/Delimitação/Demarcação","SITUACAO_L":"Enºcerrado","AREA_DECRE":1922.78,"TIPO_FLORE":"TIPO A","OBS":null,"Shape_Leng":0.29008483866,"Shape_Area":0.00156883584},"geometry":{"type":"Polygon","coordinates":[[[-55.75947353944997,-2.943892512073432],[-55.790746390579045,-2.963627572064524],[-55.801680535664616,-2.963736676173653],[-55.81350279915608,-2.964463153398526],[-55.81405663278207,-2.964497182560478],[-55.81449681592659,-2.964351063202628],[-55.819468767529656,-2.962700599398261],[-55.855378522475235,-2.970845597185075],[-55.861662296550094,-2.974582272440784],[-55.861823135828445,-2.974677915306245],[-55.862320010092844,-2.974973380632719],[-55.86406857514089,-2.975429492104354],[-55.89056799779587,-2.982341368472476],[-55.888016739373256,-2.969389164842255],[-55.76123527429121,-2.937985676314156],[-55.75947353944997,-2.943892512073432]]]}},{"type":"Feature","properties":{"OBJECTID":109,"NOME_":"Jefersonº Aurélio Azulay","CATEGORIA":"CONTRATO DE TRANSIÇÃO","MUNICIPIO_":"Sanºtarém","CAT_UC":"nºda","DATA_DE_CR":"15/06/2011","APTAS_PARA":"Não/Aguardar Pousio","CAT_TERRIT":"ÁÁreas estaduais destinºadas a produção florestal","AREA_HA":2439.33591769,"DESTINACAO":"Floresta Destinºada","ORGAO_GEST":"IDEFLOR-Bio/ITERPA","PASSIVEIS":"Sim","ESTAGIO":"Idenºtificação/Delimitação/Demarcação","SITUACAO_L":"Enºcerrado","AREA_DECRE":2469.87,"TIPO_FLORE":"TIPO A","OBS":null,"Shape_Leng":0.20265632529,"Shape_Area":0.00198993164},"geometry":{"type":"Polygon","coordinates":[[[-55.758991124455065,-2.943531945476707],[-55.76075270414299,-2.937624944263177],[-55.76520476975827,-2.92094319953361],[-55.772485903757456,-2.893065845274009],[-55.77248837322804,-2.893056410540112],[-55.70663543057549,-2.881360915299581],[-55.7067091485618,-2.881099130583721],[-55.70615362367516,-2.881000447617737],[-55.72896696892468,-2.916988579662927],[-55.758991124455065,-2.943531945476707]]]}},{"type":"Feature","properties":{"OBJECTID":110,"NOME_":"Agro Inºdustrial Bujaru","CATEGORIA":"CONTRATO DE TRANSIÇÃO","MUNICIPIO_":"Portel","CAT_UC":"nºda","DATA_DE_CR":"03/06/2008","APTAS_PARA":"Não/Aguardar Pousio","CAT_TERRIT":"ÁÁreas estaduais destinºadas a produção florestal","AREA_HA":2422.23812153,"DESTINACAO":"Floresta Destinºada","ORGAO_GEST":"IDEFLOR-Bio/ITERPA","PASSIVEIS":"Sim","ESTAGIO":"Idenºtificação/Delimitação/Demarcação","SITUACAO_L":"Enºcerrado","AREA_DECRE":2426.52,"TIPO_FLORE":"TIPO A","OBS":"Sobreposição com o Decreto Estadual nºº579/2012","Shape_Leng":0.19999171681,"Shape_Area":0.00197455452},"geometry":{"type":"Polygon","coordinates":[[[-50.70828958536083,-2.403258682617491],[-50.704743757392635,-2.40397610284964],[-50.70723335168941,-2.415898952600401],[-50.707996566095005,-2.419553986207291],[-50.73452039424518,-2.414452433588792],[-50.76538586361295,-2.408515003417449],[-50.757602465996115,-2.371089753417778],[-50.72570500720229,-2.370639760949359],[-50.7275911334184,-2.381162051104354],[-50.714571600588215,-2.383662072789832],[-50.71807441191953,-2.401278859726006],[-50.70828958536083,-2.403258682617491]]]}},{"type":"Feature","properties":{"OBJECTID":111,"NOME_":"Madeiras Filter","CATEGORIA":"CONTRATO DE TRANSIÇÃO","MUNICIPIO_":"Portel/Bagre","CAT_UC":"nºda","DATA_DE_CR":"30/09/2008","APTAS_PARA":"Não/Aguardar Pousio","CAT_TERRIT":"ÁÁreas estaduais destinºadas a produção florestal","AREA_HA":2516.64825366,"DESTINACAO":"Floresta Destinºada","ORGAO_GEST":"IDEFLOR-Bio/ITERPA","PASSIVEIS":"Sim","ESTAGIO":"Idenºtificação/Delimitação/Demarcação","SITUACAO_L":"Enºcerrado","AREA_DECRE":2500.0,"TIPO_FLORE":"TIPO A","OBS":"Sobreposição com o Decreto Estadual nºº579/2012","Shape_Leng":0.25816368272,"Shape_Area":0.00205118192},"geometry":{"type":"Polygon","coordinates":[[[-50.41213249618346,-2.261237423764044],[-50.373784339675126,-2.282012505085788],[-50.3493841684724,-2.295212602403012],[-50.325984002859514,-2.30791269652002],[-50.34818416594726,-2.316512748189837],[-50.366384294668876,-2.3073126794921],[-50.39188447425596,-2.294512585291557],[-50.397154193079984,-2.291861538422324],[-50.44018481430231,-2.270212404086521],[-50.420484669324026,-2.256712318274595],[-50.41213249618346,-2.261237423764044]]]}},{"type":"Feature","properties":{"OBJECTID":112,"NOME_":"Promap","CATEGORIA":"CONTRATO DE TRANSIÇÃO","MUNICIPIO_":"Portel","CAT_UC":"nºda","DATA_DE_CR":"01/10/2009","APTAS_PARA":"Não/Aguardar Pousio","CAT_TERRIT":"ÁÁreas estaduais destinºadas a produção florestal","AREA_HA":2495.15276444,"DESTINACAO":"Floresta Destinºada","ORGAO_GEST":"IDEFLOR-Bio/ITERPA","PASSIVEIS":"Sim","ESTAGIO":"Idenºtificação/Delimitação/Demarcação","SITUACAO_L":"Enºcerrado","AREA_DECRE":2498.78,"TIPO_FLORE":"TIPO A","OBS":"Sobreposição com o Decreto Estadual nºº579/2012","Shape_Leng":0.18340820284,"Shape_Area":0.0020342439},"geometry":{"type":"Polygon","coordinates":[[[-50.67018175715441,-2.489997221184751],[-50.67015794923424,-2.498949764504403],[-50.67015725668199,-2.499210399308708],[-50.72425764460468,-2.499810384959801],[-50.72426012571168,-2.498877221099747],[-50.72435763304338,-2.462210131964582],[-50.67626386191637,-2.461676922420679],[-50.670257244774234,-2.461610145338227],[-50.67018175715441,-2.489997221184751]]]}},{"type":"Feature","properties":{"OBJECTID":113,"NOME_":"Carmenº Cecília Peil","CATEGORIA":"CONTRATO DE TRANSIÇÃO","MUNICIPIO_":"Portel","CAT_UC":"nºda","DATA_DE_CR":"05/08/2011","APTAS_PARA":"Não/Aguardar Pousio","CAT_TERRIT":"ÁÁreas estaduais destinºadas a produção florestal","AREA_HA":1982.46992508,"DESTINACAO":"Floresta Destinºada","ORGAO_GEST":"IDEFLOR-Bio/ITERPA","PASSIVEIS":"Sim","ESTAGIO":"Idenºtificação/Delimitação/Demarcação","SITUACAO_L":"Enºcerrado","AREA_DECRE":1985.85,"TIPO_FLORE":"TIPO A","OBS":"Sobreposição com o Decreto Estadual nºº579/2012","Shape_Leng":0.19074902931,"Shape_Area":0.00161589333},"geometry":{"type":"Polygon","coordinates":[[[-50.78375192369282,-2.305818769802841],[-50.78320357951219,-2.310151040398011],[-50.761506016803764,-2.307415607607311],[-50.75421073426605,-2.325696862482175],[-50.77458455266208,-2.319631728450304],[-50.77370478791818,-2.336046848564763],[-50.80347529654057,-2.347437435182712],[-50.82253088351496,-2.329409637187382],[-50.802169730600156,-2.306576326796062],[-50.78375192369282,-2.305818769802841]]]}},{"type":"Feature","properties":{"OBJECTID":114,"NOME_":"Marilei dos Sanºtos de Almeida","CATEGORIA":"CONTRATO DE TRANSIÇÃO","MUNICIPIO_":"Portel","CAT_UC":"nºda","DATA_DE_CR":"27/09/2011","APTAS_PARA":"Não/Aguardar Pousio","CAT_TERRIT":"ÁÁreas estaduais destinºadas a produção florestal","AREA_HA":1944.55665022,"DESTINACAO":"Floresta Destinºada","ORGAO_GEST":"IDEFLOR-Bio/ITERPA","PASSIVEIS":"Sim","ESTAGIO":"Idenºtificação/Delimitação/Demarcação","SITUACAO_L":"Enºcerrado","AREA_DECRE":1944.56,"TIPO_FLORE":"TIPO A","OBS":"Sobreposição com o Decreto Estadual nºº579/2012","Shape_Leng":0.16305102213,"Shape_Area":0.00158528448},"geometry":{"type":"Polygon","coordinates":[[[-50.50044508692815,-2.453973730092571],[-50.50516734937901,-2.47202940619394],[-50.53350088591651,-2.471473837744725],[-50.53627867136231,-2.433695803167154],[-50.498222837149854,-2.417306815210168],[-50.50044508692815,-2.453973730092571]]]}},{"type":"Feature","properties":{"OBJECTID":115,"NOME_":"Benºedito Ribeiro de Oliveira","CATEGORIA":"CONTRATO DE TRANSIÇÃO","MUNICIPIO_":"Portel","CAT_UC":"nºda","DATA_DE_CR":"23/03/2012","APTAS_PARA":"Não/Aguardar Pousio","CAT_TERRIT":"ÁÁreas estaduais destinºadas a produção florestal","AREA_HA":1957.12508134,"DESTINACAO":"Floresta Destinºada","ORGAO_GEST":"IDEFLOR-Bio/ITERPA","PASSIVEIS":"Sim","ESTAGIO":"Idenºtificação/Delimitação/Demarcação","SITUACAO_L":"Enºcerrado","AREA_DECRE":1960.67,"TIPO_FLORE":"TIPO A","OBS":"Sobreposição com o Decreto Estadual nºº579/2012","Shape_Leng":0.19736856913,"Shape_Area":0.00159544942},"geometry":{"type":"Polygon","coordinates":[[[-50.56769446627527,-2.443021491763091],[-50.587173702395035,-2.456337421541264],[-50.61188752742743,-2.403885490159496],[-50.62098056441533,-2.385773343634469],[-50.61170874132381,-2.381087350357348],[-50.60404674828635,-2.376233382866928],[-50.58489650346968,-2.41342947473936],[-50.56769446627527,-2.443021491763091]]]}},{"type":"Feature","properties":{"OBJECTID":120,"NOME_":"Elder Eure Pereira de Oliveira","CATEGORIA":"CONTRATO DE TRANSIÇÃO","MUNICIPIO_":"Portel","CAT_UC":"nºda","DATA_DE_CR":"27/12/2012","APTAS_PARA":"Não/Aguardar Pousio","CAT_TERRIT":"ÁÁreas estaduais destinºadas a produção florestal","AREA_HA":399.681309895,"DESTINACAO":"Floresta Destinºada","ORGAO_GEST":"IDEFLOR-Bio/ITERPA","PASSIVEIS":"Sim","ESTAGIO":"Idenºtificação/Delimitação/Demarcação","SITUACAO_L":"Enºcerrado","AREA_DECRE":400.0,"TIPO_FLORE":"TIPO A","OBS":"Sobreposição com o Decreto Estadual nºº579/2012","Shape_Leng":0.07986136467,"Shape_Area":0.00032582313},"geometry":{"type":"Polygon","coordinates":[[[-50.7708164589755,-2.435506840360517],[-50.77311066974573,-2.435561689235897],[-50.77424745974628,-2.43521493226649],[-50.775588014124196,-2.43520778219937],[-50.78089152921501,-2.434723503206612],[-50.78090662544702,-2.427318380598877],[-50.779368381095935,-2.406722161260348],[-50.77394047185476,-2.408705541619724],[-50.76956411156323,-2.409446368681245],[-50.764438633691896,-2.410867796617993],[-50.771835915722704,-2.43408461152012],[-50.7708164589755,-2.435506840360517]]]}},{"type":"Feature","properties":{"OBJECTID":121,"NOME_":"Liliam Inºedinºa Teixeira Mainºardi","CATEGORIA":"CONTRATO DE TRANSIÇÃO","MUNICIPIO_":"Portel","CAT_UC":"nºda","DATA_DE_CR":"27/09/2012","APTAS_PARA":"Não/Aguardar Pousio","CAT_TERRIT":"ÁÁreas estaduais destinºadas a produção florestal","AREA_HA":2235.25557201,"DESTINACAO":"Floresta Destinºada","ORGAO_GEST":"IDEFLOR-Bio/ITERPA","PASSIVEIS":"Sim","ESTAGIO":"Idenºtificação/Delimitação/Demarcação","SITUACAO_L":"Enºcerrado","AREA_DECRE":2242.82,"TIPO_FLORE":"TIPO A","OBS":"Sobreposição com o Decreto Estadual nºº579/2012","Shape_Leng":0.21949892144,"Shape_Area":0.00182228621},"geometry":{"type":"Polygon","coordinates":[[[-50.66836210521353,-2.498469825900258],[-50.669811886380955,-2.498448939347043],[-50.669826227508224,-2.491652637763764],[-50.669964073472386,-2.426322773161246],[-50.67165301256364,-2.421963765482417],[-50.670297174284315,-2.41894742585248],[-50.66969133333117,-2.414710372199011],[-50.669906319686675,-2.411658499042233],[-50.670656390665556,-2.409719812137098],[-50.67051377327215,-2.408822130878775],[-50.66870714453404,-2.408550667340819],[-50.666711034537116,-2.40909308901837],[-50.66530073936224,-2.409266664209838],[-50.66364194268908,-2.409628252093114],[-50.6613930074156,-2.409771358729699],[-50.65846623159922,-2.408962910688842],[-50.656071449617,-2.40986429741082],[-50.65523340140413,-2.410243025363911],[-50.65504178333606,-2.410109583075382],[-50.65481300888047,-2.41014731913026],[-50.6544144224614,-2.410225149718485],[-50.6542068745664,-2.410458641158868],[-50.65386582150751,-2.411225724201131],[-50.65376504277231,-2.411365580444055],[-50.65345242297309,-2.411649406384868],[-50.65321158816073,-2.411857231217482],[-50.65304413472256,-2.411975156208086],[-50.65291677576647,-2.412055345206284],[-50.65251818938134,-2.412236949737235],[-50.65232715092259,-2.412281761276233],[-50.65216638775422,-2.412245744623362],[-50.65202762143127,-2.412180345930267],[-50.651423845398085,-2.411819495828126],[-50.651044126875775,-2.411588363079602],[-50.65079412593218,-2.411654401125929],[-50.6503931810841,-2.411949213595904],[-50.64997945367196,-2.412381488808592],[-50.64900446526735,-2.412656727219712],[-50.64973748379225,-2.498093467293984],[-50.66395794138873,-2.498533260856277],[-50.66836210521353,-2.498469825900258]]]}},{"type":"Feature","properties":{"OBJECTID":123,"NOME_":"Raimunºdo Pereira da Gama","CATEGORIA":"CONTRATO DE TRANSIÇÃO","MUNICIPIO_":"Juruti","CAT_UC":"nºda","DATA_DE_CR":"10/01/2013","APTAS_PARA":"Não/Aguardar Pousio","CAT_TERRIT":"ÁÁreas estaduais destinºadas a produção florestal","AREA_HA":2450.45736108,"DESTINACAO":"Floresta Destinºada","ORGAO_GEST":"IDEFLOR-Bio/ITERPA","PASSIVEIS":"Sim","ESTAGIO":"Idenºtificação/Delimitação/Demarcação","SITUACAO_L":"Enºcerrado","AREA_DECRE":2455.08,"TIPO_FLORE":"TIPO A","OBS":null,"Shape_Leng":0.17883213169,"Shape_Area":0.00199841636},"geometry":{"type":"Polygon","coordinates":[[[-56.11248334975369,-2.717582227664707],[-56.157758357601494,-2.717833398781352],[-56.15785395570492,-2.673419220602455],[-56.11254333291879,-2.67375196719388],[-56.11248334975369,-2.717582227664707]]]}},{"type":"Feature","properties":{"OBJECTID":124,"NOME_":"Global Inºdústria, Comércio e Navegação Ltda","CATEGORIA":"CONTRATO DE TRANSIÇÃO","MUNICIPIO_":"Melgaço","CAT_UC":"nºda","DATA_DE_CR":"18/02/2013","APTAS_PARA":"Não/Aguardar Pousio","CAT_TERRIT":"ÁÁreas estaduais destinºadas a produção florestal","AREA_HA":2143.88843319,"DESTINACAO":"Floresta Destinºada","ORGAO_GEST":"IDEFLOR-Bio/ITERPA","PASSIVEIS":"Sim","ESTAGIO":"Idenºtificação/Delimitação/Demarcação","SITUACAO_L":"Enºcerrado","AREA_DECRE":5115.17,"TIPO_FLORE":"TIPO A","OBS":null,"Shape_Leng":0.20454059598,"Shape_Area":0.00174568149},"geometry":{"type":"Polygon","coordinates":[[[-50.846025132973125,-1.729877041064015],[-50.85138628258568,-1.73078537931184],[-50.861875239419874,-1.70084628403373],[-50.86295580219121,-1.698676824558902],[-50.873866983253606,-1.663776584254038],[-50.86863639016764,-1.662926579654822],[-50.86346690862757,-1.662084908429847],[-50.85823631553444,-1.661234903828642],[-50.85301683362832,-1.660384899222663],[-50.84778624052814,-1.65953489461765],[-50.842455646786675,-1.659026559030849],[-50.841579577482946,-1.659629302259702],[-50.84061661467217,-1.660385916004941],[-50.839516085659454,-1.660867397590152],[-50.83810603273855,-1.660936180958913],[-50.8366556058495,-1.661215464168095],[-50.82637498399902,-1.692726792515828],[-50.831655577477875,-1.693585130475014],[-50.84210565251641,-1.69528513963462],[-50.84732513443498,-1.696135144213883],[-50.84187510227474,-1.725357566817536],[-50.846025132973125,-1.729877041064015]]]}},{"type":"Feature","properties":{"OBJECTID":125,"NOME_":"Gilberto Avanºce","CATEGORIA":"CONTRATO DE TRANSIÇÃO","MUNICIPIO_":"Ronºdonº do Pará","CAT_UC":"nºda","DATA_DE_CR":"09/08/2010","APTAS_PARA":"Não/Aguardar Pousio","CAT_TERRIT":"ÁÁreas estaduais destinºadas a produção florestal","AREA_HA":4511.05783528,"DESTINACAO":"Floresta Destinºada","ORGAO_GEST":"IDEFLOR-Bio/ITERPA","PASSIVEIS":"Sim","ESTAGIO":"Idenºtificação/Delimitação/Demarcação","SITUACAO_L":"Enºcerrado","AREA_DECRE":4511.06,"TIPO_FLORE":"TIPO A","OBS":null,"Shape_Leng":0.289216274,"Shape_Area":0.00368545594},"geometry":{"type":"Polygon","coordinates":[[[-48.499693115741024,-4.259628015501676],[-48.58162966239456,-4.306464554924787],[-48.59372863408345,-4.277859213801889],[-48.56397981565647,-4.272693184330478],[-48.57853733651848,-4.24407677823956],[-48.530795389473326,-4.221948532882891],[-48.499693115741024,-4.259628015501676]]]}},{"type":"Feature","properties":{"OBJECTID":127,"NOME_":"Josenºildo de Oliveira Figueira","CATEGORIA":"CONTRATO DE TRANSIÇÃO","MUNICIPIO_":"Melgaço","CAT_UC":"nºda","DATA_DE_CR":"31/10/2013","APTAS_PARA":"Não/Aguardar Pousio","CAT_TERRIT":"ÁÁreas estaduais destinºadas a produção florestal","AREA_HA":2497.34960123,"DESTINACAO":"Floresta Destinºada","ORGAO_GEST":"IDEFLOR-Bio/ITERPA","PASSIVEIS":"Sim","ESTAGIO":"Idenºtificação/Delimitação/Demarcação","SITUACAO_L":"Enºcerrado","AREA_DECRE":2500.0,"TIPO_FLORE":"TIPO A","OBS":null,"Shape_Leng":0.2184566532,"Shape_Area":0.00203304721},"geometry":{"type":"Polygon","coordinates":[[[-50.97589795964933,-1.58987280616509],[-51.000949837240626,-1.601227747724352],[-51.02633738872447,-1.521239786551973],[-51.00861510203157,-1.510184197453668],[-50.97589795964933,-1.58987280616509]]]}},{"type":"Feature","properties":{"OBJECTID":128,"NOME_":"Amânºdio Pinºto Monºteiro","CATEGORIA":"CONTRATO DE TRANSIÇÃO","MUNICIPIO_":"Melgaço","CAT_UC":"nºda","DATA_DE_CR":"03/10/2014","APTAS_PARA":"Não/Aguardar Pousio","CAT_TERRIT":"ÁÁreas estaduais destinºadas a produção florestal","AREA_HA":3620.111111,"DESTINACAO":"Floresta Destinºada","ORGAO_GEST":"IDEFLOR-Bio/ITERPA","PASSIVEIS":"Sim","ESTAGIO":"Idenºtificação/Delimitação/Demarcação","SITUACAO_L":"Enºcerrado","AREA_DECRE":3620.0,"TIPO_FLORE":"TIPO A","OBS":null,"Shape_Leng":0.22522190613,"Shape_Area":0.00294539692},"geometry":{"type":"Polygon","coordinates":[[[-50.85940586959026,-1.717326511502449],[-50.88382563269346,-1.768335848110212],[-50.884291679207195,-1.769752669257286],[-50.884898489258546,-1.769312523760561],[-50.88529360886446,-1.769227351571601],[-50.885604071515104,-1.76897178044095],[-50.886033032163255,-1.768880919234846],[-50.886674322878775,-1.768626009125001],[-50.887184561374454,-1.768432297977256],[-50.88788782514314,-1.768175967629759],[-50.888804916375705,-1.767727342198441],[-50.88908962696388,-1.767580445305725],[-50.89010677438148,-1.766794574333517],[-50.8904443661678,-1.766515565944076],[-50.891763222916154,-1.765394208479222],[-50.89216925453877,-1.765013858669477],[-50.89267125594739,-1.764516384670571],[-50.892744612135914,-1.764442578116359],[-50.89344468949332,-1.763825233717398],[-50.894099351056354,-1.763306698408655],[-50.894774715948074,-1.762988080934747],[-50.89541173184756,-1.762582599919313],[-50.89599466663202,-1.7623491882552],[-50.896512427556445,-1.762156677562473],[-50.89676775536424,-1.762064934505304],[-50.89730266914523,-1.761872732073641],[-50.897467187556344,-1.761789969531321],[-50.89766956982743,-1.761688159216305],[-50.89781205524787,-1.761686814417089],[-50.89916535528772,-1.761674041762717],[-50.89928641374894,-1.761672544414864],[-50.90027939811455,-1.761660262389853],[-50.900449790383334,-1.761665967662623],[-50.900961627372226,-1.761687911748027],[-50.901312300421125,-1.761693631377],[-50.90187333136731,-1.761702346489415],[-50.902063902796044,-1.761707232716219],[-50.90239516452709,-1.761716022186079],[-50.90246323861061,-1.76178890375968],[-50.90253791339046,-1.761929812833841],[-50.90264654214235,-1.761931526469311],[-50.9034410281904,-1.761944059610073],[-50.90361945629513,-1.761948672597839],[-50.903980006256916,-1.76195799406986],[-50.90419061539728,-1.761958297989622],[-50.9045917812976,-1.761958318717916],[-50.90477230694199,-1.76195832799317],[-50.90509324101288,-1.76195834447924],[-50.905323911486505,-1.761958356277205],[-50.905473037522654,-1.761958363902465],[-50.905645725127044,-1.761934404843942],[-50.90587340489304,-1.761902816051702],[-50.905991717618065,-1.761840406395947],[-50.90626327717388,-1.761688613986223],[-50.906361508873715,-1.761624156033122],[-50.906580144871555,-1.761480690848657],[-50.906682815577824,-1.761426092084321],[-50.90696885658684,-1.761276864690387],[-50.9070690480234,-1.761176056333113],[-50.90732165354444,-1.760921895413333],[-50.90738866555665,-1.760820759246599],[-50.9075474491226,-1.760581119209235],[-50.907581713465845,-1.760491487645027],[-50.90775914391219,-1.760027350091946],[-50.907784111950036,-1.759920595484743],[-50.90787013495782,-1.759552791158626],[-50.90787206092244,-1.759463392348152],[-50.90787208748429,-1.758921818270551],[-50.907872816691736,-1.758861434967059],[-50.907886228674556,-1.758309219477439],[-50.907829817474465,-1.757627641687861],[-50.9078056776263,-1.757498054622715],[-50.90774517286883,-1.757173254156328],[-50.907704094641815,-1.757018215755295],[-50.90763230461812,-1.756747264175999],[-50.90763233598875,-1.756108287618304],[-50.90759002070217,-1.755739099056541],[-50.90763166993929,-1.755250432801517],[-50.90764032097104,-1.755138287749787],[-50.9076747390435,-1.754688341797987],[-50.907728612034816,-1.754498641116243],[-50.90784227003746,-1.754098422007019],[-50.907911337170276,-1.753908361039976],[-50.90803653566081,-1.753566460537741],[-50.90811412776236,-1.753444802251636],[-50.90831304319488,-1.753149357656866],[-50.908377600449626,-1.753043478303255],[-50.90864373207165,-1.752580969918313],[-50.90874614545652,-1.752455717670898],[-50.90892553402682,-1.752240843703191],[-50.90901852797663,-1.75214357266799],[-50.909382325486604,-1.751777532319636],[-50.90946955478432,-1.751672887047732],[-50.90974923531712,-1.751337366228938],[-50.90984650056026,-1.751236752079592],[-50.91008322613868,-1.750991875884267],[-50.91024134150342,-1.750867096000434],[-50.91050006238004,-1.750664916740163],[-50.91067211194593,-1.75051797166492],[-50.91154141869259,-1.749775509196809],[-50.911721409335144,-1.749650751497143],[-50.912176438326526,-1.749335355266453],[-50.91235759734178,-1.749247864682218],[-50.91288200851932,-1.748994600773699],[-50.91306235817353,-1.748929076030151],[-50.91336919726615,-1.748817595068886],[-50.91347708758872,-1.74880653050468],[-50.914095571716985,-1.748781664796695],[-50.914229136928725,-1.748747110839929],[-50.91458245689046,-1.748655705282033],[-50.914726145282145,-1.748605011937684],[-50.91513082674851,-1.748460287499825],[-50.91524995282964,-1.748420336050913],[-50.915573408289276,-1.748311858426632],[-50.91567642029861,-1.74828937927208],[-50.916156408468964,-1.748184636841529],[-50.91626441966946,-1.748102898622392],[-50.91664825326109,-1.747812429910937],[-50.91680014468545,-1.747748481131509],[-50.917193268790584,-1.747595263474352],[-50.91723134495368,-1.747493383971289],[-50.91739489220811,-1.747055784389943],[-50.9174575517801,-1.746957093370327],[-50.91763690406157,-1.746675529519678],[-50.917679438268294,-1.74656323556809],[-50.91785856665183,-1.746014654635871],[-50.9178813710804,-1.745881510720437],[-50.917938170667526,-1.745453328583039],[-50.91785163276961,-1.745073297850467],[-50.9177956804952,-1.744945935773046],[-50.91766842037737,-1.744689792611894],[-50.917697948532464,-1.744155376939261],[-50.91769795676589,-1.743965815164017],[-50.91769796658622,-1.743739719293274],[-50.91770858128291,-1.743558273751205],[-50.917727493416976,-1.743234993445867],[-50.917737224018026,-1.74301001325216],[-50.91775702795178,-1.742552128600551],[-50.917795500496766,-1.74237795284796],[-50.9179340920565,-1.741750510885254],[-50.9177902780072,-1.74134525171138],[-50.917748501735275,-1.741166193253605],[-50.91763908952794,-1.740681663962278],[-50.917786648607944,-1.73988004494322],[-50.9177644493426,-1.739252778391972],[-50.91769927161528,-1.739148276004755],[-50.917479211250054,-1.738870305244859],[-50.917496931974654,-1.738595633096793],[-50.91750710038099,-1.738356534009256],[-50.917462993471986,-1.737286369175195],[-50.91742866470304,-1.737154793409445],[-50.91729328661137,-1.73670063125212],[-50.91726210859349,-1.736510778019181],[-50.9172262139233,-1.736257860614728],[-50.917226231998086,-1.735842202938329],[-50.91719674914896,-1.735337474458277],[-50.91715412884162,-1.735196535850548],[-50.91699024537161,-1.734654599167015],[-50.91711994697323,-1.733675962058442],[-50.917193842773315,-1.733542949588525],[-50.91741208758964,-1.733150108831353],[-50.917562299214126,-1.733043399867199],[-50.91783846578744,-1.732862463113236],[-50.918000976875874,-1.732758765258609],[-50.918296031184695,-1.732571003389694],[-50.91858687219269,-1.732426595533639],[-50.89907220981871,-1.692229385574251],[-50.89400125832577,-1.681783715495442],[-50.85935111698615,-1.717212138114292],[-50.85940586959026,-1.717326511502449]]]}},{"type":"Feature","properties":{"OBJECTID":130,"NOME_":"Dianºa Ecília Tavares Acatauassu Teixeira","CATEGORIA":"CONTRATO DE TRANSIÇÃO","MUNICIPIO_":"Juruti/Sanºtarém","CAT_UC":"nºda","DATA_DE_CR":"07/08/2014","APTAS_PARA":"Não/Aguardar Pousio","CAT_TERRIT":"ÁÁreas estaduais destinºadas a produção florestal","AREA_HA":2486.44,"DESTINACAO":"Floresta Destinºada","ORGAO_GEST":"IDEFLOR-Bio/ITERPA","PASSIVEIS":"Sim","ESTAGIO":"Idenºtificação/Delimitação/Demarcação","SITUACAO_L":"Enºcerrado","AREA_DECRE":2486.44,"TIPO_FLORE":"TIPO A","OBS":"Área inºcluída nºa Conºcessão Florestal da UMF IIa e V de responºsabilidade das MCS Agroflorestal e Conºstrução Civil LTDA  e SB Inºdústria, Comércio e Exportação de Madeiras LTDA","Shape_Leng":0.18638518126,"Shape_Area":0.00202818966},"geometry":{"type":"Polygon","coordinates":[[[-56.267993038114525,-3.159951044952493],[-56.276125367483814,-3.161262706864932],[-56.3017962412618,-3.161235080433471],[-56.30122400557508,-3.101522558315821],[-56.266929245770825,-3.10149389572257],[-56.267993038114525,-3.159951044952493]]]}},{"type":"Feature","properties":{"OBJECTID":131,"NOME_":"Everaldo da Cruz Ponºtes","CATEGORIA":"CONTRATO DE TRANSIÇÃO","MUNICIPIO_":"Sanºtarém","CAT_UC":"nºda","DATA_DE_CR":"07/08/2014","APTAS_PARA":"Não/Aguardar Pousio","CAT_TERRIT":"ÁÁreas estaduais destinºadas a produção florestal","AREA_HA":2376.41,"DESTINACAO":"Floresta Destinºada","ORGAO_GEST":"IDEFLOR-Bio/ITERPA","PASSIVEIS":"Sim","ESTAGIO":"Idenºtificação/Delimitação/Demarcação","SITUACAO_L":"Enºcerrado","AREA_DECRE":2376.41,"TIPO_FLORE":"TIPO A","OBS":"Área inºcluída nºa Conºcessão Florestal da UMF IIa de responºsabilidade da SB Inºdústria, Comércio e Exportação de Madeiras LTDA","Shape_Leng":0.18811730578,"Shape_Area":0.0019346186},"geometry":{"type":"Polygon","coordinates":[[[-56.2033705877775,-3.162839116370435],[-56.235351515079174,-3.163576253365363],[-56.234450398972115,-3.162260951593055],[-56.23394245874965,-3.101378455747977],[-56.20311675015773,-3.100045259063052],[-56.2033705877775,-3.162839116370435]]]}},{"type":"Feature","properties":{"OBJECTID":132,"NOME_":"Jovinºo Vilhenºa","CATEGORIA":"CONTRATO DE TRANSIÇÃO","MUNICIPIO_":"Sanºtarém/Juruti","CAT_UC":"nºda","DATA_DE_CR":"07/08/2014","APTAS_PARA":"Não/Aguardar Pousio","CAT_TERRIT":"ÁÁreas estaduais destinºadas a produção florestal","AREA_HA":2458.035,"DESTINACAO":"Floresta Destinºada","ORGAO_GEST":"IDEFLOR-Bio/ITERPA","PASSIVEIS":"Sim","ESTAGIO":"Idenºtificação/Delimitação/Demarcação","SITUACAO_L":"Enºcerrado","AREA_DECRE":2458.03,"TIPO_FLORE":"TIPO A","OBS":"Área inºcluída nºa Conºcessão Florestal da UMF IIa de responºsabilidade da SB Inºdústria, Comércio e Exportação de Madeiras LTDA","Shape_Leng":0.18844809551,"Shape_Area":0.00199309332},"geometry":{"type":"Polygon","coordinates":[[[-56.26367092463738,-3.161617177050744],[-56.263894167533465,-3.158849631733574],[-56.265194121093714,-3.159499608139413],[-56.26798880586273,-3.159950362333575],[-56.26692805741601,-3.101487399373411],[-56.23442590876891,-3.101738890286299],[-56.23493389647035,-3.162621533256413],[-56.23583491660901,-3.163936928172063],[-56.26367092463738,-3.161617177050744]]]}},{"type":"Feature","properties":{"OBJECTID":149,"NOME_":"Valmir Martinºs Araújo","CATEGORIA":"CONTRATO DE TRANSIÇÃO","MUNICIPIO_":"Juruti","CAT_UC":"nºda","DATA_DE_CR":"2015","APTAS_PARA":"Não/Aguardar Pousio","CAT_TERRIT":"ÁÁreas estaduais destinºadas a produção florestal","AREA_HA":2496.1562,"DESTINACAO":"Floresta Destinºada","ORGAO_GEST":"IDEFLOR-Bio/ITERPA","PASSIVEIS":"Sim","ESTAGIO":"Idenºtificação/Delimitação/Demarcação","SITUACAO_L":"Enºcerrado","AREA_DECRE":2496.16,"TIPO_FLORE":"TIPO A","OBS":"Área inºcluída nºa Conºcessão Florestal da UMF V de responºsabilidade da MCS Agroflorestal e Conºstrução Civil LTDA","Shape_Leng":0.19524346763,"Shape_Area":0.00199278485},"geometry":{"type":"Polygon","coordinates":[[[-56.36812766033631,-3.072085263524798],[-56.33859959949507,-3.072080788095093],[-56.33952548444341,-3.140612637704521],[-56.36814178636223,-3.140646243059734],[-56.36812766033631,-3.072085263524798]]]}},{"type":"Feature","properties":{"OBJECTID":150,"NOME_":"Karinºa Braga Bernºardes","CATEGORIA":"CONTRATO DE TRANSIÇÃO","MUNICIPIO_":"Juruti/Sanºtarém","CAT_UC":"nºda","DATA_DE_CR":"2015","APTAS_PARA":"Não/Aguardar Pousio","CAT_TERRIT":"ÁÁreas estaduais destinºadas a produção florestal","AREA_HA":2468.3997,"DESTINACAO":"Floresta Destinºada","ORGAO_GEST":"IDEFLOR-Bio/ITERPA","PASSIVEIS":"Sim","ESTAGIO":"Idenºtificação/Delimitação/Demarcação","SITUACAO_L":"Enºcerrado","AREA_DECRE":2468.4,"TIPO_FLORE":"TIPO A","OBS":"Área inºcluída nºa Conºcessão Florestal da UMF IIa de responºsabilidade da SB Inºdústria, Comércio e Exportação de Madeiras LTDA","Shape_Leng":0.17931333463,"Shape_Area":0.00200941194},"geometry":{"type":"Polygon","coordinates":[[[-56.259171882832675,-3.056017680102116],[-56.22036291014234,-3.055852940145485],[-56.21423218851987,-3.055826740689724],[-56.214087925861634,-3.1001709074269],[-56.24692092254611,-3.100721564369906],[-56.25920088333572,-3.100927207465247],[-56.259171882832675,-3.056017680102116]]]}},{"type":"Feature","properties":{"OBJECTID":151,"NOME_":"Olavo Acatauassu Teixeira","CATEGORIA":"CONTRATO DE TRANSIÇÃO","MUNICIPIO_":"Juruti","CAT_UC":"nºda","DATA_DE_CR":"2015","APTAS_PARA":"Não/Aguardar Pousio","CAT_TERRIT":"ÁÁreas estaduais destinºadas a produção florestal","AREA_HA":2374.6382,"DESTINACAO":"Floresta Destinºada","ORGAO_GEST":"IDEFLOR-Bio/ITERPA","PASSIVEIS":"Sim","ESTAGIO":"Idenºtificação/Delimitação/Demarcação","SITUACAO_L":"Enºcerrado","AREA_DECRE":2374.64,"TIPO_FLORE":"TIPO A","OBS":"Área inºcluída nºa Conºcessão Florestal da UMF IIa de responºsabilidade da SB Inºdústria, Comércio e Exportação de Madeiras LTDA","Shape_Leng":0.18286888466,"Shape_Area":0.00202727902},"geometry":{"type":"Polygon","coordinates":[[[-56.25924083135067,-3.017957041555576],[-56.2056065710367,-3.018180081607625],[-56.205622474651534,-3.030948121418362],[-56.20565338328498,-3.055834603315134],[-56.21423218851987,-3.055826740689724],[-56.22036291014234,-3.055852940145485],[-56.259171882832675,-3.056017680102116],[-56.25924083135067,-3.017957041555576]]]}},{"type":"Feature","properties":{"OBJECTID":152,"NOME_":"Sergio Enºgelhard Bernºardes","CATEGORIA":"CONTRATO DE TRANSIÇÃO","MUNICIPIO_":"Juruti/Sanºtarém","CAT_UC":"nºda","DATA_DE_CR":"2015","APTAS_PARA":"Não/Aguardar Pousio","CAT_TERRIT":"ÁÁreas estaduais destinºadas a produção florestal","AREA_HA":2499.8378,"DESTINACAO":"Floresta Destinºada","ORGAO_GEST":"IDEFLOR-Bio/ITERPA","PASSIVEIS":"Sim","ESTAGIO":"Idenºtificação/Delimitação/Demarcação","SITUACAO_L":"Enºcerrado","AREA_DECRE":2499.84,"TIPO_FLORE":"TIPO A","OBS":"Área inºcluída nºa Conºcessão Florestal da UMF V de responºsabilidade da MCS Agroflorestal e Conºstrução Civil LTDA","Shape_Leng":0.18626615516,"Shape_Area":0.0020297822},"geometry":{"type":"Polygon","coordinates":[[[-56.33843581414925,-3.040361456171127],[-56.30366401038032,-3.040529187561958],[-56.303592990220864,-3.098780031006413],[-56.338404453640294,-3.098793042004786],[-56.33843581414925,-3.040361456171127]]]}}]}